<?xml version="1.0" encoding="UTF-8"?>
<gpx version="1.1" creator="Larapinta Trail 2027" xmlns="http://www.topografix.com/GPX/1/1">
  <wpt lat="-23.698" lon="133.8807"><name>Alice Springs hotel · 10–11 Apr and 1 May</name></wpt>
  <wpt lat="-23.67095" lon="133.88508"><name>Telegraph Station start · 12 Apr</name></wpt>
  <wpt lat="-23.6764" lon="133.7728"><name>Wallaby Gap · 12 Apr</name></wpt>
  <wpt lat="-23.67388" lon="133.71956"><name>Simpsons Gap · 13 Apr</name></wpt>
  <wpt lat="-23.66474" lon="133.6129"><name>Mulga Camp · 14 Apr</name></wpt>
  <wpt lat="-23.7278" lon="133.5042"><name>Jay Creek · 15 Apr</name></wpt>
  <wpt lat="-23.71613" lon="133.47015"><name>Standley Chasm · 16–17 Apr</name></wpt>
  <wpt lat="-23.71082" lon="133.39201"><name>Brinkley Bluff · 18 Apr</name></wpt>
  <wpt lat="-23.72529" lon="133.34284"><name>4-5 Junction · 19 Apr</name></wpt>
  <wpt lat="-23.67107" lon="133.2722"><name>Hugh Gorge · 20 Apr</name></wpt>
  <wpt lat="-23.76163" lon="133.1693"><name>Rocky Gully · 21 Apr</name></wpt>
  <wpt lat="-23.77684" lon="133.07341"><name>Ellery Creek · 22 Apr</name></wpt>
  <wpt lat="-23.75174" lon="132.97861"><name>Serpentine Gorge · 23 Apr</name></wpt>
  <wpt lat="-23.72551" lon="132.91062"><name>Serpentine Chalet Dam · 24 Apr</name></wpt>
  <wpt lat="-23.68717" lon="132.82522"><name>Waterfall Gorge · 25 Apr</name></wpt>
  <wpt lat="-23.63225" lon="132.7264"><name>Ormiston Gorge · 26–27 Apr</name></wpt>
  <wpt lat="-23.5897" lon="132.679"><name>Finke River · 28 Apr</name></wpt>
  <wpt lat="-23.60865" lon="132.60275"><name>Rocky Bar Gap · 29 Apr</name></wpt>
  <wpt lat="-23.57758" lon="132.51861"><name>Redbank Gorge · 30 Apr</name></wpt>
  <wpt lat="-23.6604" lon="132.433"><name>Mt Sonder summit · 1 May</name></wpt>
</gpx>
