{"type":"FeatureCollection","features":[{"type":"Feature","properties":{"name":"Larapinta Trail","source":"OpenStreetMap / Waymarked Trails relation 3066363","license":"ODbL"},"geometry":{"type":"MultiLineString","coordinates":[[[133.885079,-23.670945],[133.885008,-23.670191],[133.883884,-23.669486],[133.883172,-23.669059],[133.88338,-23.66829],[133.883871,-23.667839]],[[133.883871,-23.667839],[133.88407,-23.666602],[133.884514,-23.665306],[133.885349,-23.664115],[133.886204,-23.663462],[133.885942,-23.66219],[133.885506,-23.661013],[133.884509,-23.658161],[133.884289,-23.657487],[133.883795,-23.656712],[133.882962,-23.656308]],[[133.882962,-23.656308],[133.882158,-23.656331],[133.881718,-23.655976],[133.880813,-23.655866],[133.880072,-23.656218],[133.879285,-23.656237],[133.878443,-23.655969],[133.877844,-23.655813],[133.876993,-23.65529],[133.876459,-23.654809],[133.875773,-23.654694],[133.875294,-23.654801],[133.873826,-23.653982],[133.873311,-23.653384],[133.872399,-23.653203],[133.871763,-23.652465],[133.871154,-23.652186],[133.870448,-23.651536],[133.86962,-23.651227],[133.869116,-23.651101],[133.86829,-23.6509],[133.867329,-23.650863],[133.865388,-23.650895],[133.865014,-23.650083],[133.8648,-23.649672],[133.864165,-23.649337],[133.863945,-23.648642],[133.863149,-23.647924]],[[133.863149,-23.647924],[133.862675,-23.647569]],[[133.862675,-23.647569],[133.862149,-23.646968],[133.861717,-23.646956],[133.860688,-23.647031],[133.859568,-23.647618],[133.859405,-23.647865],[133.859197,-23.647884],[133.858256,-23.648209],[133.857135,-23.648975],[133.855937,-23.648969],[133.854994,-23.648876],[133.854535,-23.649307],[133.85386,-23.649662],[133.852919,-23.650382],[133.852392,-23.649913],[133.851877,-23.649601],[133.851662,-23.649344],[133.851333,-23.649024],[133.851271,-23.648517],[133.851182,-23.648056],[133.8511,-23.647231],[133.850604,-23.647106],[133.850118,-23.647858],[133.84978,-23.648252],[133.849389,-23.648611],[133.849025,-23.649062],[133.848976,-23.649616],[133.849086,-23.650021],[133.849138,-23.650482],[133.849201,-23.650809],[133.849157,-23.650955],[133.849081,-23.651105],[133.847837,-23.651528],[133.847386,-23.651785],[133.846762,-23.651881],[133.8461,-23.652061],[133.845626,-23.65201],[133.844426,-23.651868],[133.843062,-23.652231],[133.842239,-23.652287],[133.84148,-23.652357],[133.840875,-23.652282],[133.839636,-23.652694],[133.83945,-23.653351],[133.838984,-23.653846],[133.838179,-23.654114],[133.83732,-23.654621],[133.836338,-23.654934],[133.835626,-23.654995],[133.834653,-23.654964],[133.833993,-23.654532],[133.833354,-23.654603],[133.832417,-23.655083],[133.831827,-23.655608],[133.831273,-23.655857],[133.830573,-23.655734],[133.829914,-23.655556],[133.8294,-23.654929],[133.828523,-23.654774],[133.827588,-23.655247],[133.826458,-23.655601],[133.825548,-23.655891],[133.825128,-23.656089],[133.824708,-23.656425],[133.824375,-23.656846],[133.823658,-23.657018],[133.822849,-23.657371],[133.822074,-23.657369],[133.821152,-23.657433],[133.820625,-23.657946],[133.820166,-23.657964],[133.81951,-23.658069],[133.819275,-23.658707],[133.818023,-23.659168],[133.816689,-23.65941],[133.815907,-23.660384],[133.814653,-23.661107],[133.813832,-23.66212],[133.813662,-23.663028],[133.812425,-23.663251],[133.811395,-23.663477],[133.811105,-23.663511]],[[133.811105,-23.663511],[133.810429,-23.664134],[133.809561,-23.664914],[133.808798,-23.665524],[133.807572,-23.665888],[133.806617,-23.6663],[133.805334,-23.666638],[133.804008,-23.666672],[133.802634,-23.666855],[133.80179,-23.667087],[133.80016,-23.667233],[133.799072,-23.666904],[133.797745,-23.666652],[133.797354,-23.665866],[133.796845,-23.66574],[133.795966,-23.66627],[133.796027,-23.667428],[133.795913,-23.667742],[133.79549,-23.667892],[133.795022,-23.66821],[133.794307,-23.668185],[133.793426,-23.668397],[133.792614,-23.668372],[133.791787,-23.668727],[133.791399,-23.668837],[133.790335,-23.668956],[133.789877,-23.669614],[133.789452,-23.669605],[133.788673,-23.669501],[133.78808,-23.669229],[133.787746,-23.669573],[133.787299,-23.6704],[133.787037,-23.671122],[133.786795,-23.671435],[133.786192,-23.671818],[133.785616,-23.671967],[133.785102,-23.672189],[133.78457,-23.672656],[133.783503,-23.672787],[133.782076,-23.672672],[133.78077,-23.673195],[133.779478,-23.673827],[133.778442,-23.674091],[133.777255,-23.674561],[133.776382,-23.674736],[133.775759,-23.675001],[133.775013,-23.675092],[133.772813,-23.675665],[133.771564,-23.675759],[133.770671,-23.67619],[133.770224,-23.676721],[133.769008,-23.676817],[133.768034,-23.676888],[133.76684,-23.676093],[133.765997,-23.675571]],[[133.765997,-23.675571],[133.764806,-23.675667],[133.764381,-23.676207],[133.763576,-23.675917],[133.763063,-23.675553],[133.762978,-23.675481],[133.762445,-23.675881],[133.761588,-23.67597],[133.76097,-23.676147],[133.760256,-23.676319],[133.759419,-23.676325],[133.758759,-23.676277],[133.758964,-23.675838],[133.758052,-23.675482],[133.757222,-23.676142],[133.7561,-23.67633],[133.754995,-23.676364],[133.753998,-23.67674],[133.753829,-23.677185],[133.753281,-23.678012],[133.753348,-23.678312],[133.753383,-23.679389],[133.751823,-23.679695],[133.750466,-23.679955],[133.748857,-23.681032],[133.748539,-23.681451],[133.745655,-23.681009],[133.744138,-23.680368],[133.743259,-23.679587],[133.742777,-23.678796],[133.742093,-23.678436],[133.741065,-23.677791],[133.740613,-23.677962],[133.740039,-23.67832],[133.739321,-23.678383],[133.738519,-23.67794],[133.737969,-23.678064],[133.737491,-23.677339],[133.736227,-23.677072],[133.735332,-23.677409],[133.734369,-23.67795],[133.733306,-23.678056],[133.732529,-23.678055],[133.731715,-23.67844],[133.731113,-23.679123],[133.730979,-23.679782],[133.731902,-23.680564],[133.731617,-23.680961],[133.729672,-23.68183],[133.72744,-23.680699],[133.726889,-23.680607],[133.726283,-23.67984],[133.725294,-23.679832],[133.724118,-23.680619],[133.723207,-23.680629],[133.722265,-23.680757],[133.720967,-23.680388],[133.720503,-23.68042]],[[133.720503,-23.68042],[133.720039,-23.680403]],[[133.720039,-23.680403],[133.718785,-23.679948],[133.718604,-23.679822]],[[133.718604,-23.679822],[133.718324,-23.679776]],[[133.718324,-23.679776],[133.718071,-23.679141],[133.718006,-23.67873]],[[133.717669,-23.678623],[133.717318,-23.678456],[133.716711,-23.678544],[133.716272,-23.678697],[133.716097,-23.678777],[133.715917,-23.678857],[133.715992,-23.679068],[133.7161,-23.679334],[133.716247,-23.679589],[133.716291,-23.680151],[133.715782,-23.680574],[133.715111,-23.681286],[133.716377,-23.682222],[133.71719,-23.683288],[133.716809,-23.683831],[133.716144,-23.684187],[133.715387,-23.683794],[133.714749,-23.683931],[133.714097,-23.683759],[133.713475,-23.683941],[133.713332,-23.684603],[133.713927,-23.68545],[133.713809,-23.68612],[133.712891,-23.685949],[133.712103,-23.68613],[133.711057,-23.686093],[133.710436,-23.685859],[133.710094,-23.686135],[133.709221,-23.686726],[133.709039,-23.687147],[133.70878,-23.687052],[133.708581,-23.686978],[133.708258,-23.687071],[133.707761,-23.687168],[133.707188,-23.687013],[133.70678,-23.687093],[133.706531,-23.687063],[133.706147,-23.687039],[133.705632,-23.687327],[133.705404,-23.687568],[133.705111,-23.687549],[133.704645,-23.687563],[133.704086,-23.687434],[133.703706,-23.687481],[133.703268,-23.687591],[133.70278,-23.687492],[133.702415,-23.687021],[133.701912,-23.687066],[133.701541,-23.687338],[133.701219,-23.687211],[133.701031,-23.687048],[133.700702,-23.687276],[133.700277,-23.687458],[133.699735,-23.687487],[133.69937,-23.687581],[133.699087,-23.687709],[133.698737,-23.687912],[133.6984,-23.687962],[133.697629,-23.68765],[133.697558,-23.687013],[133.697157,-23.68648],[133.69651,-23.686394],[133.695957,-23.685835],[133.695773,-23.685356],[133.695788,-23.684666],[133.695523,-23.684009],[133.695427,-23.683397],[133.694802,-23.682719],[133.694074,-23.682074],[133.693267,-23.681536],[133.692778,-23.681535],[133.692457,-23.680866],[133.692146,-23.680816],[133.69161,-23.680105],[133.690675,-23.680114],[133.690525,-23.680055],[133.690073,-23.680172],[133.690144,-23.679822],[133.689502,-23.679586],[133.688691,-23.679782],[133.688137,-23.680009],[133.687698,-23.680464],[133.687381,-23.680964],[133.685778,-23.681076],[133.684977,-23.681489],[133.684471,-23.682014],[133.684054,-23.682228],[133.682788,-23.6823],[133.682142,-23.682655],[133.681713,-23.682772],[133.681227,-23.683149],[133.680787,-23.683646],[133.680244,-23.683621]],[[133.680244,-23.683621],[133.679506,-23.683598],[133.677958,-23.683754],[133.677509,-23.683782],[133.677186,-23.682906],[133.677403,-23.682081],[133.675439,-23.681245],[133.673852,-23.681082],[133.672943,-23.681702],[133.672616,-23.681877],[133.671777,-23.681717],[133.671232,-23.681358],[133.670819,-23.681152],[133.67016,-23.68091],[133.669831,-23.680625],[133.66819,-23.680429],[133.666537,-23.680354],[133.665215,-23.680366],[133.664472,-23.680658],[133.663623,-23.680525],[133.662766,-23.680405],[133.662145,-23.680245],[133.661501,-23.679931],[133.661055,-23.679927],[133.660788,-23.680253],[133.659823,-23.680549],[133.659115,-23.680765],[133.657965,-23.680719],[133.656888,-23.680486],[133.655207,-23.680538],[133.654297,-23.680627],[133.652901,-23.681059],[133.651355,-23.681063],[133.650606,-23.681335],[133.649878,-23.681355],[133.649092,-23.68186],[133.648374,-23.681343],[133.64736,-23.681094],[133.646986,-23.68164],[133.64682,-23.682177],[133.645511,-23.682849],[133.64467,-23.682899],[133.643493,-23.682891],[133.642588,-23.683031],[133.641537,-23.683397],[133.640776,-23.683056],[133.640352,-23.682406],[133.640268,-23.682194],[133.639664,-23.681526],[133.638728,-23.681052],[133.638289,-23.680722],[133.636898,-23.679856],[133.63626,-23.679473],[133.634998,-23.678619],[133.63467,-23.678153],[133.634872,-23.677755],[133.634957,-23.67705],[133.635081,-23.676588],[133.635502,-23.675886],[133.634425,-23.67573],[133.633644,-23.676148],[133.632623,-23.675176],[133.632352,-23.67403],[133.632494,-23.673305],[133.631537,-23.671893],[133.630876,-23.671562],[133.630329,-23.671392],[133.629584,-23.670586],[133.628523,-23.670348],[133.62757,-23.669954],[133.626716,-23.669809],[133.625915,-23.669531],[133.624198,-23.668929],[133.622833,-23.667854],[133.621515,-23.667182],[133.620695,-23.667752],[133.61989,-23.667996],[133.619354,-23.66734],[133.618309,-23.667916],[133.617484,-23.668169],[133.616676,-23.667285],[133.616002,-23.666436],[133.615462,-23.665005],[133.615203,-23.664326],[133.614609,-23.663756],[133.613351,-23.663738],[133.612469,-23.663309],[133.611761,-23.663204],[133.610503,-23.662723],[133.608724,-23.662253],[133.607162,-23.662546],[133.606206,-23.662609],[133.604983,-23.662648],[133.604092,-23.662971],[133.60372,-23.662897],[133.603183,-23.662816],[133.602353,-23.662821],[133.601431,-23.662652],[133.600775,-23.662673],[133.600214,-23.6627],[133.599504,-23.662353],[133.598404,-23.661857],[133.597744,-23.661878],[133.597532,-23.662062],[133.596974,-23.662097],[133.596003,-23.661667],[133.595098,-23.661171],[133.594427,-23.660757],[133.593254,-23.659994],[133.592801,-23.65945],[133.592458,-23.658724],[133.592243,-23.658134],[133.592047,-23.65787],[133.591796,-23.657533],[133.591534,-23.657276],[133.591428,-23.657083],[133.591677,-23.656983],[133.591757,-23.656687],[133.591361,-23.656603],[133.59102,-23.656398],[133.590714,-23.656092],[133.59043,-23.655847],[133.590022,-23.655454],[133.589769,-23.654943],[133.589199,-23.65476],[133.58833,-23.654278],[133.587623,-23.653711],[133.586727,-23.653259],[133.585696,-23.653051],[133.584497,-23.652977],[133.58372,-23.65283],[133.582745,-23.652619],[133.581413,-23.651948],[133.580936,-23.651817],[133.580048,-23.651773],[133.579404,-23.651872],[133.578758,-23.651816],[133.578088,-23.651771],[133.576999,-23.651593],[133.576216,-23.652028],[133.575804,-23.652295],[133.575246,-23.652806],[133.574117,-23.652998],[133.57337,-23.653374],[133.572872,-23.653299],[133.572514,-23.653451],[133.571913,-23.653611],[133.570426,-23.653642],[133.569561,-23.653291],[133.568715,-23.653336],[133.567842,-23.653514],[133.567286,-23.653559],[133.566401,-23.653206],[133.565463,-23.652962],[133.565038,-23.652957],[133.563954,-23.652757],[133.563238,-23.652745],[133.562033,-23.652537],[133.560739,-23.652172],[133.559926,-23.651989],[133.559686,-23.651806],[133.559391,-23.651694],[133.558557,-23.651242],[133.557846,-23.651013],[133.557296,-23.651104],[133.556621,-23.65127],[133.556436,-23.651681],[133.556444,-23.652011],[133.556632,-23.652185],[133.557301,-23.652387],[133.556697,-23.652897],[133.555735,-23.65284],[133.555106,-23.653152],[133.554266,-23.653605],[133.55362,-23.65367],[133.552601,-23.653721],[133.552267,-23.654132],[133.552092,-23.654752],[133.552178,-23.655276],[133.551902,-23.655829],[133.551442,-23.656392],[133.551089,-23.657114],[133.550954,-23.657364],[133.550485,-23.65798],[133.549858,-23.658381],[133.549203,-23.658709],[133.548172,-23.658948],[133.548033,-23.658996],[133.547557,-23.659265],[133.547269,-23.659803],[133.546475,-23.660136],[133.545742,-23.660574],[133.545076,-23.66054],[133.54428,-23.660496],[133.543246,-23.660593],[133.542347,-23.661064],[133.541252,-23.661622],[133.540281,-23.66299],[133.539994,-23.663623],[133.538787,-23.664054]],[[133.538787,-23.664054],[133.53893,-23.664471],[133.539087,-23.664958],[133.539454,-23.665565],[133.539489,-23.665948],[133.539661,-23.666448],[133.539822,-23.666739],[133.53987,-23.66704],[133.540236,-23.667737],[133.540733,-23.668299],[133.541266,-23.668885],[133.54152,-23.669079],[133.542503,-23.669413],[133.542901,-23.669497],[133.543101,-23.669598],[133.54349,-23.669723],[133.543943,-23.669968],[133.544192,-23.670279],[133.54435,-23.670778],[133.544586,-23.671381],[133.544707,-23.67194],[133.544705,-23.672478],[133.544499,-23.672946],[133.544276,-23.673446],[133.544179,-23.673668],[133.543867,-23.673826],[133.543209,-23.674292],[133.542876,-23.67419],[133.542398,-23.67429],[133.542046,-23.674439],[133.541648,-23.674585],[133.542003,-23.674666],[133.541989,-23.675106],[133.542011,-23.675319],[133.542034,-23.675572],[133.541996,-23.67592],[133.541811,-23.676479],[133.541551,-23.677072],[133.541254,-23.678116],[133.540995,-23.678407],[133.540654,-23.678242],[133.540032,-23.678159],[133.53975,-23.678367],[133.539218,-23.678814],[133.538675,-23.679182],[133.537771,-23.679503],[133.537425,-23.679514],[133.536855,-23.679617],[133.536101,-23.679564],[133.535785,-23.679817],[133.534994,-23.680287],[133.534571,-23.680629],[133.53352,-23.680755],[133.532917,-23.680902],[133.532366,-23.681041],[133.531438,-23.681006],[133.530641,-23.680898],[133.530149,-23.681024],[133.529709,-23.68081],[133.528731,-23.680637],[133.527759,-23.681022],[133.527197,-23.681292],[133.526558,-23.681043],[133.526015,-23.6808],[133.525723,-23.680417],[133.524741,-23.68051],[133.523288,-23.680696],[133.522149,-23.680665],[133.521773,-23.680685],[133.521547,-23.680806],[133.521179,-23.681046],[133.520676,-23.681406]],[[133.520676,-23.681406],[133.520341,-23.681694],[133.520325,-23.681918],[133.520266,-23.682094],[133.519965,-23.682183],[133.519847,-23.682294],[133.519472,-23.682376],[133.519145,-23.68229],[133.518807,-23.682199],[133.518635,-23.68215],[133.518202,-23.682178],[133.518036,-23.682262],[133.517837,-23.682385],[133.517718,-23.682426],[133.517133,-23.682448],[133.516639,-23.68255],[133.516191,-23.682807],[133.516062,-23.682911],[133.515625,-23.683233],[133.515223,-23.683424],[133.514741,-23.683425],[133.514345,-23.683602],[133.513899,-23.683752],[133.513649,-23.683875],[133.513528,-23.683942],[133.51327,-23.683966],[133.513025,-23.684034],[133.512829,-23.6841],[133.512627,-23.684215],[133.512469,-23.684401],[133.512362,-23.684476],[133.512199,-23.684481],[133.511945,-23.684566],[133.511667,-23.684591],[133.51145,-23.684663],[133.511284,-23.684805],[133.511094,-23.685005],[133.510811,-23.685021],[133.510476,-23.685102],[133.510263,-23.685259],[133.510162,-23.685343],[133.51003,-23.685392],[133.510021,-23.685778],[133.509869,-23.686126],[133.509521,-23.68625],[133.509364,-23.686356],[133.509088,-23.686537],[133.509003,-23.686824],[133.509001,-23.687174],[133.50902,-23.687389],[133.509159,-23.687617],[133.509275,-23.687711],[133.509546,-23.687847],[133.509572,-23.688132],[133.50967,-23.688472],[133.509861,-23.688859],[133.509931,-23.689167],[133.510184,-23.689415],[133.510245,-23.689681],[133.510138,-23.690149],[133.510181,-23.690496],[133.509869,-23.690755],[133.509602,-23.691244],[133.509091,-23.691539],[133.508247,-23.691704],[133.507876,-23.691754],[133.507531,-23.691937],[133.507215,-23.69235],[133.5068,-23.692387],[133.506336,-23.692094],[133.50561,-23.691789],[133.5051,-23.691942],[133.504183,-23.692139],[133.503497,-23.692108],[133.502907,-23.692031],[133.502537,-23.692106],[133.502091,-23.69218],[133.501664,-23.692178],[133.501084,-23.692013],[133.500631,-23.691851],[133.500115,-23.691823],[133.499722,-23.691868],[133.499126,-23.691942],[133.498658,-23.692066],[133.498393,-23.692231],[133.498106,-23.692326],[133.49775,-23.692368],[133.497355,-23.692375],[133.497087,-23.692377],[133.496171,-23.692324],[133.495646,-23.692179],[133.494957,-23.69237],[133.494462,-23.692588],[133.493771,-23.693317],[133.493317,-23.693615],[133.492936,-23.693593]],[[133.492936,-23.693593],[133.492375,-23.694351],[133.491653,-23.694586],[133.49055,-23.69519],[133.4901,-23.695401],[133.489348,-23.695687],[133.487994,-23.695904],[133.487339,-23.69622],[133.486075,-23.696331],[133.485583,-23.696591],[133.485128,-23.697054],[133.484531,-23.69726],[133.48364,-23.697661],[133.483302,-23.698085],[133.483181,-23.698525],[133.483245,-23.699031],[133.482261,-23.699566],[133.481521,-23.699943],[133.481481,-23.700346],[133.481297,-23.701357],[133.481321,-23.7017],[133.480519,-23.702458],[133.479648,-23.703264],[133.479533,-23.703675],[133.479305,-23.704313],[133.478717,-23.704862],[133.477797,-23.705469],[133.477274,-23.70603],[133.477022,-23.706324],[133.477176,-23.706511],[133.476159,-23.706916],[133.475147,-23.707305],[133.474345,-23.707496],[133.473851,-23.7078],[133.473169,-23.707792],[133.472398,-23.708295],[133.471686,-23.70891],[133.471027,-23.709244],[133.470258,-23.710385],[133.469782,-23.71078],[133.469159,-23.711444],[133.469356,-23.712591],[133.469029,-23.712664],[133.468939,-23.713669],[133.469078,-23.714624],[133.469293,-23.715301],[133.469232,-23.715765],[133.469244,-23.716292],[133.469865,-23.716947],[133.470217,-23.717048],[133.470297,-23.717047]],[[133.470297,-23.717047],[133.469384,-23.718415],[133.469305,-23.719686],[133.469499,-23.721111],[133.469577,-23.721666],[133.469463,-23.721897]],[[133.468599,-23.726128],[133.467806,-23.726013],[133.467564,-23.725619],[133.466898,-23.724629],[133.465866,-23.723957],[133.464755,-23.72319],[133.464561,-23.722514]],[[133.464561,-23.722514],[133.463697,-23.722174],[133.461874,-23.722419],[133.4614,-23.722462],[133.459384,-23.722457],[133.458374,-23.722517],[133.456581,-23.722203],[133.45549,-23.722285],[133.454465,-23.72178],[133.453277,-23.722115],[133.452217,-23.721867],[133.451309,-23.721723],[133.450913,-23.721533],[133.450833,-23.721286],[133.450705,-23.72137],[133.450354,-23.721184],[133.45004,-23.721072],[133.449817,-23.720938],[133.44941,-23.720734],[133.449043,-23.720648],[133.448632,-23.72062],[133.448212,-23.72039],[133.448156,-23.720208],[133.448107,-23.72006],[133.447757,-23.720033],[133.447443,-23.719964],[133.447452,-23.719875],[133.447188,-23.719709],[133.446683,-23.719955],[133.446032,-23.719608],[133.445687,-23.719187],[133.445074,-23.719019],[133.44463,-23.718913],[133.444285,-23.718912],[133.443324,-23.718329],[133.442852,-23.718271],[133.44231,-23.717948],[133.441781,-23.717797],[133.441296,-23.717559],[133.440993,-23.71751],[133.44038,-23.717238],[133.440072,-23.716964],[133.439781,-23.71704],[133.439301,-23.716951],[133.438418,-23.71664],[133.437616,-23.716264],[133.437436,-23.7158],[133.437023,-23.715595],[133.436706,-23.715638],[133.436521,-23.715313],[133.436181,-23.714971],[133.435734,-23.714758],[133.435602,-23.714548],[133.435051,-23.714339],[133.434881,-23.714049],[133.43416,-23.713555],[133.433758,-23.713323],[133.433373,-23.713044],[133.432738,-23.712649],[133.432357,-23.712449],[133.431904,-23.712395],[133.431442,-23.712374],[133.431085,-23.712252],[133.430744,-23.712323],[133.430208,-23.712527],[133.42986,-23.712528],[133.429503,-23.712343],[133.429268,-23.712247],[133.42893,-23.712051],[133.428451,-23.711985],[133.428215,-23.711902],[133.427746,-23.711846],[133.427725,-23.712008],[133.42772,-23.712103],[133.427431,-23.712229],[133.426995,-23.712073],[133.426627,-23.71188],[133.426408,-23.711906],[133.426025,-23.712],[133.425802,-23.711941],[133.425552,-23.711722],[133.425308,-23.711683],[133.425033,-23.711375],[133.425041,-23.71112],[133.425108,-23.710979],[133.425085,-23.71078],[133.42515,-23.710627],[133.42496,-23.710399],[133.424861,-23.710163],[133.424453,-23.709911],[133.423628,-23.709468],[133.423128,-23.709237],[133.422667,-23.708978],[133.421879,-23.708927],[133.421258,-23.708942],[133.4203,-23.709137],[133.419806,-23.709485],[133.419447,-23.709644],[133.418708,-23.709379],[133.418208,-23.709383],[133.417411,-23.70919],[133.416888,-23.70906],[133.416514,-23.708859],[133.41608,-23.708762],[133.415573,-23.708694],[133.415152,-23.708707],[133.414689,-23.708787],[133.414047,-23.708698],[133.413855,-23.708505],[133.413222,-23.708235],[133.412728,-23.707871],[133.412242,-23.708047],[133.411487,-23.70814],[133.411195,-23.708144],[133.410669,-23.708187],[133.410055,-23.708189],[133.40946,-23.708091],[133.408881,-23.707843],[133.408178,-23.707661],[133.407682,-23.707684],[133.406796,-23.707847],[133.406206,-23.70811],[133.405611,-23.708212],[133.404747,-23.708424],[133.404013,-23.708386],[133.403584,-23.708428],[133.40323,-23.708397],[133.402065,-23.70859],[133.401036,-23.708857],[133.40026,-23.709105],[133.399579,-23.709296],[133.398803,-23.709315],[133.398085,-23.709128],[133.397404,-23.709181],[133.396691,-23.709279],[133.396234,-23.709319],[133.395722,-23.709449],[133.394998,-23.709777],[133.394008,-23.710102],[133.393147,-23.710227],[133.39244,-23.710503],[133.391685,-23.710899],[133.391356,-23.711186],[133.391613,-23.711373]],[[133.391613,-23.711373],[133.392272,-23.711143],[133.392469,-23.711235],[133.392628,-23.711439],[133.392506,-23.711618],[133.392657,-23.711653],[133.392707,-23.711763],[133.392843,-23.711876],[133.392751,-23.712245],[133.392497,-23.712542],[133.392307,-23.712787],[133.392568,-23.712838],[133.392802,-23.71304],[133.392898,-23.713108],[133.393024,-23.713255],[133.393204,-23.713388],[133.393231,-23.71354],[133.393325,-23.713724],[133.39302,-23.713816],[133.392748,-23.713948],[133.392522,-23.714217],[133.392259,-23.714433],[133.392051,-23.714705],[133.391912,-23.715012],[133.391562,-23.715331],[133.391222,-23.715291],[133.390918,-23.715409],[133.390271,-23.715606],[133.389787,-23.715683],[133.38953,-23.715682],[133.389317,-23.716089],[133.388962,-23.716097],[133.388723,-23.716259],[133.388178,-23.716603],[133.387466,-23.716836],[133.387178,-23.716994],[133.386868,-23.716864],[133.386772,-23.716683],[133.3863,-23.716742],[133.386304,-23.716354],[133.386048,-23.716243],[133.385797,-23.716142],[133.385531,-23.716151],[133.385268,-23.716182],[133.384994,-23.716146],[133.384672,-23.715965],[133.384204,-23.71613],[133.3836,-23.715962],[133.383198,-23.715806],[133.382992,-23.715639],[133.382475,-23.715835],[133.381898,-23.715863],[133.381402,-23.715757],[133.381008,-23.715548],[133.380454,-23.715042],[133.379616,-23.714939],[133.379154,-23.714837],[133.379032,-23.714216],[133.378556,-23.713876],[133.377554,-23.713486],[133.377242,-23.713327]],[[133.377242,-23.713327],[133.376898,-23.713434]],[[133.376898,-23.713434],[133.376062,-23.713637],[133.375352,-23.714312],[133.374301,-23.714922],[133.373565,-23.715692],[133.372759,-23.716301],[133.372595,-23.716847],[133.372283,-23.717214],[133.371489,-23.717563],[133.370596,-23.717571],[133.369415,-23.717559],[133.368369,-23.717723],[133.36754,-23.717765],[133.366886,-23.717933],[133.366122,-23.718257],[133.364826,-23.718724],[133.364018,-23.719057],[133.363128,-23.719239],[133.362527,-23.719452],[133.361855,-23.719562],[133.361246,-23.719636],[133.3604,-23.719673],[133.359919,-23.719697],[133.359659,-23.719618],[133.359402,-23.719501],[133.358875,-23.719277],[133.358227,-23.718972],[133.357797,-23.718596],[133.357648,-23.718327],[133.35739,-23.718113],[133.357217,-23.718177],[133.356521,-23.718383],[133.356127,-23.718324],[133.355609,-23.718096],[133.35517,-23.717556],[133.354905,-23.71718],[133.354615,-23.716772],[133.354362,-23.716537],[133.354056,-23.716993],[133.353123,-23.71701],[133.352502,-23.716929],[133.351767,-23.716988],[133.351217,-23.717142],[133.350878,-23.717387],[133.350414,-23.717464],[133.350183,-23.717714],[133.349354,-23.718211],[133.348702,-23.717877],[133.348226,-23.718489],[133.348156,-23.718517]],[[133.348156,-23.718517],[133.347665,-23.718341],[133.347128,-23.717915],[133.346729,-23.717525],[133.346071,-23.717003],[133.345124,-23.716257],[133.34429,-23.715573],[133.343649,-23.715231],[133.34297,-23.714691],[133.342432,-23.714282],[133.341737,-23.713748],[133.34124,-23.713356],[133.340777,-23.713033],[133.340226,-23.712869],[133.339546,-23.712724],[133.338915,-23.712783],[133.338479,-23.712785],[133.33792,-23.712912],[133.337611,-23.713088],[133.337048,-23.712935],[133.336509,-23.712792],[133.335914,-23.712555],[133.335595,-23.712552],[133.335178,-23.712649],[133.334615,-23.71265],[133.334112,-23.712871],[133.33381,-23.712917],[133.333465,-23.712883],[133.332634,-23.713061],[133.331938,-23.713143],[133.33172,-23.713387],[133.331499,-23.713145]],[[133.331499,-23.713145],[133.331332,-23.712875],[133.331232,-23.712517],[133.331053,-23.712077],[133.33082,-23.711586],[133.33083,-23.710926],[133.330749,-23.710146],[133.330787,-23.709405],[133.330691,-23.708649],[133.330718,-23.708117],[133.330755,-23.707626],[133.330468,-23.707302],[133.330716,-23.706707],[133.330683,-23.706],[133.330601,-23.705412],[133.330457,-23.705243],[133.330553,-23.704891],[133.330469,-23.704661],[133.330386,-23.704146],[133.330382,-23.7038],[133.330456,-23.703477],[133.330456,-23.702894],[133.330529,-23.702622],[133.330055,-23.701957],[133.329941,-23.70169],[133.329614,-23.701263],[133.329533,-23.700846],[133.329235,-23.700392],[133.328871,-23.700242],[133.328512,-23.700213],[133.328079,-23.700285],[133.327727,-23.700413],[133.327477,-23.700388],[133.326905,-23.700398],[133.326447,-23.700507],[133.326053,-23.700586],[133.32581,-23.700527],[133.325368,-23.700584],[133.325035,-23.700558],[133.324613,-23.700618],[133.32416,-23.700572],[133.323809,-23.700509],[133.323545,-23.700411],[133.323254,-23.700426],[133.323055,-23.700379],[133.322742,-23.700574],[133.322372,-23.700252],[133.322279,-23.700037],[133.322452,-23.699915],[133.322636,-23.699614],[133.32281,-23.6992],[133.322547,-23.699041],[133.322211,-23.699036],[133.322023,-23.698693],[133.321317,-23.698286],[133.320642,-23.697873],[133.320233,-23.697999],[133.319851,-23.698055],[133.319291,-23.698156],[133.319189,-23.698197],[133.318849,-23.698169],[133.318413,-23.698169],[133.318002,-23.698154],[133.317678,-23.698151],[133.317463,-23.698094],[133.317278,-23.698042],[133.317025,-23.698113],[133.316572,-23.698141],[133.316003,-23.697955],[133.315515,-23.697783],[133.314898,-23.697642],[133.314563,-23.697625],[133.314319,-23.697687],[133.313903,-23.697779],[133.3135,-23.697821],[133.312952,-23.697814],[133.312281,-23.697748],[133.311379,-23.697313],[133.310701,-23.697228],[133.310358,-23.697166],[133.309949,-23.697216],[133.309454,-23.697124],[133.309106,-23.697114],[133.308942,-23.696871],[133.308553,-23.696556],[133.308021,-23.696425],[133.307286,-23.696317],[133.306598,-23.695807],[133.306186,-23.695437],[133.30568,-23.695251],[133.305283,-23.695277],[133.30452,-23.6953],[133.304074,-23.694786],[133.303738,-23.694393],[133.303717,-23.694153],[133.303503,-23.69364],[133.303188,-23.693447],[133.302963,-23.693299],[133.302904,-23.69299],[133.302795,-23.692616],[133.302682,-23.69236],[133.302493,-23.692226],[133.302265,-23.692054],[133.302147,-23.691828],[133.301896,-23.691752],[133.301773,-23.691449],[133.302284,-23.691232],[133.301564,-23.691108],[133.301229,-23.691274],[133.300977,-23.691462],[133.300758,-23.690998],[133.300549,-23.690853]],[[133.300549,-23.690853],[133.299874,-23.690476],[133.298684,-23.690059],[133.298129,-23.689404],[133.29713,-23.689254],[133.296284,-23.689225],[133.295665,-23.688867],[133.294348,-23.688483],[133.293095,-23.687814],[133.292619,-23.687549],[133.292202,-23.687246],[133.2919,-23.686969],[133.291081,-23.686613],[133.290643,-23.686439],[133.289758,-23.685834],[133.289349,-23.685699],[133.288894,-23.685684],[133.288546,-23.685591],[133.288222,-23.6851],[133.287958,-23.68484],[133.287766,-23.684414],[133.287561,-23.684143],[133.287302,-23.683856],[133.286976,-23.683883],[133.287114,-23.683675],[133.286734,-23.683494],[133.286291,-23.683393],[133.285899,-23.683485],[133.285623,-23.683511],[133.285029,-23.68348],[133.284805,-23.683394]],[[133.284805,-23.683394],[133.28447,-23.682901],[133.284106,-23.682454],[133.283764,-23.682373],[133.283319,-23.682087],[133.28286,-23.681652],[133.282084,-23.681338],[133.281534,-23.681269],[133.28123,-23.681218],[133.281003,-23.681291],[133.279825,-23.681189],[133.279484,-23.681065],[133.278585,-23.680879],[133.27831,-23.680965],[133.278053,-23.681057],[133.277714,-23.681332],[133.277321,-23.681401],[133.276849,-23.681075],[133.276331,-23.680737],[133.276115,-23.680647],[133.275807,-23.680228],[133.275371,-23.680162],[133.275017,-23.680055],[133.274389,-23.679944],[133.273842,-23.679435],[133.273439,-23.679089],[133.27297,-23.678774],[133.272523,-23.678624],[133.272341,-23.678625],[133.271991,-23.678653],[133.271629,-23.678963],[133.271215,-23.679288],[133.270612,-23.679551],[133.270557,-23.679835],[133.270214,-23.680091],[133.269813,-23.680472],[133.269669,-23.68076],[133.269876,-23.681031],[133.269736,-23.681331],[133.269813,-23.681774],[133.26984,-23.682314],[133.269749,-23.682728],[133.269864,-23.683],[133.269779,-23.683171],[133.269508,-23.683432],[133.269162,-23.683893],[133.268849,-23.684268],[133.268542,-23.684622],[133.268473,-23.684788],[133.268369,-23.684957],[133.268211,-23.685306],[133.268162,-23.685667],[133.268325,-23.686127],[133.268463,-23.686546],[133.268605,-23.686762],[133.269009,-23.687278],[133.269042,-23.687583],[133.269224,-23.68782],[133.269324,-23.688189],[133.26933,-23.688452],[133.269126,-23.688998],[133.268844,-23.689454],[133.268475,-23.689731],[133.268088,-23.689851],[133.267792,-23.689931],[133.267212,-23.69024],[133.266993,-23.690512],[133.266662,-23.690878],[133.266239,-23.691037],[133.265895,-23.69131],[133.265566,-23.691477],[133.265277,-23.691641],[133.264457,-23.691498],[133.263732,-23.69119],[133.263154,-23.691065],[133.262876,-23.691095],[133.262589,-23.691396],[133.262525,-23.691655],[133.26213,-23.692095],[133.261665,-23.692503],[133.261585,-23.692912],[133.261466,-23.693435],[133.261421,-23.6937],[133.261293,-23.694057],[133.261047,-23.694295],[133.260858,-23.694404],[133.260569,-23.69456],[133.260323,-23.69472],[133.25979,-23.695377],[133.259557,-23.695844],[133.259437,-23.696276],[133.259239,-23.696671],[133.259224,-23.696978],[133.25931,-23.697593],[133.259163,-23.698211],[133.259192,-23.698814],[133.259334,-23.699123],[133.259306,-23.699473],[133.259276,-23.699838],[133.259484,-23.700107],[133.259596,-23.700375],[133.259565,-23.700714],[133.259529,-23.701025],[133.259592,-23.70117],[133.259682,-23.701518],[133.259767,-23.70193],[133.259521,-23.7022],[133.25934,-23.702586]],[[133.25934,-23.702586],[133.259208,-23.702407],[133.25895,-23.7029],[133.258353,-23.70339],[133.258255,-23.703777],[133.257972,-23.703946],[133.257709,-23.704063],[133.256959,-23.704879],[133.256737,-23.705273],[133.256111,-23.705931],[133.255347,-23.706265],[133.255136,-23.70653],[133.254817,-23.70689],[133.254483,-23.70697],[133.253799,-23.707006],[133.253308,-23.707129],[133.252771,-23.706958],[133.252535,-23.706874],[133.252171,-23.706734],[133.2516,-23.706666],[133.251128,-23.706698],[133.250703,-23.706843],[133.250267,-23.706872],[133.249729,-23.707414],[133.249754,-23.707716],[133.249648,-23.708193],[133.249355,-23.708654],[133.250152,-23.709296],[133.250587,-23.709587],[133.250645,-23.709907],[133.250789,-23.710668],[133.251013,-23.711199],[133.250733,-23.711932],[133.250505,-23.712936],[133.250986,-23.713643],[133.250747,-23.714353],[133.25081,-23.714533],[133.250849,-23.714921],[133.250755,-23.715553],[133.250607,-23.716031],[133.250144,-23.716707],[133.249867,-23.7171],[133.249741,-23.717705],[133.249321,-23.717955],[133.248251,-23.718022],[133.247645,-23.718091],[133.247521,-23.718579],[133.247271,-23.719022],[133.24701,-23.719424],[133.246937,-23.719709],[133.246618,-23.719908],[133.245738,-23.720572],[133.245373,-23.720847],[133.244909,-23.721124],[133.244315,-23.721162],[133.243633,-23.721051],[133.242497,-23.720861],[133.241876,-23.720567],[133.241139,-23.720384],[133.240926,-23.720365],[133.240533,-23.72063],[133.24023,-23.72082],[133.23945,-23.720784],[133.239127,-23.720738],[133.238928,-23.720534],[133.238556,-23.720327],[133.238018,-23.720262],[133.23798,-23.720255]],[[133.23798,-23.720255],[133.2376,-23.720221],[133.237478,-23.720255],[133.237087,-23.720308],[133.236432,-23.720345],[133.236084,-23.720394],[133.235877,-23.720314],[133.235115,-23.720217],[133.234642,-23.720427],[133.234387,-23.720656],[133.23419,-23.720919],[133.2339,-23.721289],[133.233832,-23.72149],[133.233745,-23.721708],[133.23343,-23.721805],[133.233005,-23.721856],[133.232504,-23.721886],[133.232182,-23.721867],[133.231662,-23.721733],[133.23105,-23.721568],[133.230545,-23.721523],[133.230219,-23.721397],[133.229746,-23.721324],[133.229458,-23.721246],[133.228806,-23.721203],[133.228433,-23.721286],[133.22822,-23.721458],[133.227556,-23.721389],[133.227544,-23.721412],[133.227062,-23.721471],[133.22587,-23.721449],[133.225,-23.721552],[133.224612,-23.722134],[133.224189,-23.722633],[133.223917,-23.72308],[133.22379,-23.723282],[133.223595,-23.723587],[133.223434,-23.724302],[133.223122,-23.724516],[133.222734,-23.725088],[133.22235,-23.725417],[133.22157,-23.725628],[133.221016,-23.725804],[133.220646,-23.725923],[133.220336,-23.726249],[133.220345,-23.726704],[133.220293,-23.727249],[133.220262,-23.727744],[133.22022,-23.728192],[133.220066,-23.728546],[133.220024,-23.728941],[133.21968,-23.729316],[133.21964,-23.729322]],[[133.21964,-23.729322],[133.219035,-23.729723],[133.218354,-23.730273],[133.217989,-23.730681],[133.217842,-23.730995],[133.217653,-23.73134],[133.21753,-23.731681],[133.217432,-23.731941],[133.217235,-23.732052],[133.216894,-23.732132],[133.216581,-23.732373],[133.216399,-23.732494],[133.216342,-23.732732],[133.216098,-23.732766],[133.216091,-23.732896],[133.215914,-23.733176],[133.215544,-23.733318],[133.215358,-23.733602],[133.215034,-23.733528],[133.214786,-23.733459],[133.214675,-23.733614],[133.214663,-23.733881],[133.214073,-23.733864],[133.213712,-23.733851],[133.213326,-23.733767],[133.213111,-23.733876],[133.213153,-23.734165],[133.212807,-23.734123],[133.212402,-23.734471],[133.21207,-23.73476],[133.211734,-23.735072],[133.211358,-23.735345],[133.211032,-23.735553],[133.210698,-23.735778],[133.2106,-23.736087],[133.210191,-23.736555],[133.209889,-23.736747],[133.209302,-23.73686],[133.209,-23.736702],[133.208619,-23.736584],[133.208114,-23.736409],[133.207848,-23.736427],[133.207428,-23.736337],[133.206854,-23.736208],[133.206434,-23.73606],[133.205974,-23.736005],[133.205533,-23.736255],[133.205206,-23.736389],[133.204912,-23.73649],[133.204577,-23.736732],[133.204177,-23.736919],[133.203928,-23.736717],[133.203113,-23.736643],[133.202796,-23.736645],[133.202415,-23.736555],[133.201647,-23.736315],[133.201155,-23.736064],[133.200869,-23.73575],[133.20058,-23.735656],[133.200116,-23.735475],[133.199491,-23.735302],[133.199248,-23.735332],[133.198812,-23.73553],[133.198722,-23.735692],[133.198528,-23.735808],[133.197815,-23.735942],[133.197424,-23.735942],[133.197104,-23.736037],[133.196769,-23.73627],[133.196317,-23.7363],[133.195896,-23.73624],[133.195504,-23.736245],[133.195208,-23.7363],[133.194964,-23.736262],[133.194386,-23.736202],[133.194033,-23.736042],[133.193766,-23.736088],[133.193421,-23.736242],[133.193359,-23.736524],[133.193203,-23.736755],[133.192679,-23.736933],[133.192381,-23.73701],[133.192178,-23.737674],[133.191968,-23.738095],[133.192024,-23.738472],[133.191863,-23.738746],[133.191532,-23.739196],[133.191469,-23.739631],[133.191531,-23.740073],[133.191496,-23.740775],[133.191414,-23.740919],[133.190865,-23.741425],[133.19049,-23.741688],[133.189859,-23.742151],[133.189349,-23.742281],[133.188852,-23.742423],[133.188569,-23.742608],[133.188145,-23.742834],[133.187748,-23.742865],[133.187258,-23.743002],[133.186964,-23.74325],[133.186406,-23.743326],[133.185766,-23.743286],[133.185455,-23.743389],[133.185154,-23.743511],[133.18484,-23.743512],[133.18458,-23.743535],[133.184197,-23.743704],[133.183936,-23.74374],[133.183372,-23.743569],[133.182945,-23.74353],[133.182492,-23.743433],[133.182074,-23.743407],[133.181762,-23.743413],[133.181638,-23.743491],[133.181591,-23.743897],[133.181286,-23.744324],[133.180942,-23.744633],[133.180733,-23.744891],[133.180357,-23.744895],[133.180041,-23.744801],[133.179664,-23.744771],[133.179074,-23.744733],[133.178954,-23.744857],[133.178699,-23.745483],[133.17843,-23.745717],[133.178463,-23.746046],[133.17821,-23.746753],[133.177701,-23.74693],[133.17734,-23.747027],[133.176602,-23.747025],[133.175615,-23.747049],[133.174369,-23.74696],[133.174088,-23.747319],[133.17382,-23.747552],[133.173712,-23.747779],[133.173439,-23.748079],[133.173268,-23.748334],[133.17316,-23.748662],[133.172771,-23.749088],[133.172238,-23.749316],[133.172164,-23.749917],[133.172375,-23.750076],[133.172518,-23.750484],[133.17247,-23.750926],[133.172418,-23.751069],[133.172105,-23.751249],[133.171786,-23.751531],[133.171384,-23.751632],[133.171447,-23.752124],[133.171647,-23.752629],[133.171567,-23.753154],[133.171538,-23.753437],[133.171373,-23.753892],[133.171331,-23.754135],[133.171115,-23.754546],[133.170783,-23.754874],[133.170608,-23.755461],[133.170535,-23.755782],[133.170551,-23.756279],[133.170266,-23.756425],[133.169925,-23.756326],[133.169493,-23.756333],[133.168969,-23.756298],[133.168661,-23.756534],[133.16838,-23.756942],[133.168059,-23.756731],[133.167974,-23.756729]],[[133.167974,-23.756729],[133.16778,-23.756664],[133.167517,-23.756642],[133.16731,-23.756653],[133.167,-23.756632],[133.166576,-23.756651],[133.166072,-23.75655],[133.165713,-23.756477],[133.165244,-23.756363],[133.164892,-23.756357],[133.164477,-23.75668],[133.164359,-23.75703],[133.164043,-23.757247],[133.163657,-23.757053],[133.163187,-23.757001],[133.162952,-23.757003],[133.162721,-23.757154],[133.162404,-23.757433],[133.162027,-23.757461],[133.161661,-23.757526],[133.161389,-23.757464],[133.161053,-23.757442],[133.160628,-23.757571],[133.160279,-23.757583],[133.159821,-23.75731],[133.159631,-23.756965],[133.159431,-23.756409],[133.159128,-23.756164],[133.158582,-23.756129],[133.158252,-23.756219],[133.157963,-23.75614],[133.157505,-23.756081],[133.157231,-23.756299],[133.156918,-23.756436],[133.156753,-23.756579],[133.156285,-23.756577],[133.155834,-23.756517],[133.15544,-23.756368],[133.155163,-23.756211],[133.154774,-23.756208],[133.154109,-23.756065],[133.153888,-23.75578],[133.153633,-23.755726],[133.153239,-23.755633],[133.152663,-23.755461],[133.152213,-23.755645],[133.151965,-23.755757],[133.151667,-23.755998],[133.151721,-23.756253],[133.151728,-23.756569],[133.151533,-23.756914],[133.151226,-23.757428],[133.151029,-23.757768],[133.150649,-23.757937],[133.150174,-23.75786],[133.149893,-23.757939],[133.149299,-23.757629],[133.148829,-23.757585],[133.148125,-23.757672],[133.147568,-23.757565],[133.147039,-23.75746],[133.146475,-23.757374],[133.146181,-23.756929],[133.145657,-23.756744],[133.145261,-23.756745],[133.145045,-23.756472],[133.144635,-23.756421],[133.144298,-23.756499],[133.144219,-23.756291],[133.144024,-23.755845],[133.143417,-23.755951],[133.143,-23.756027],[133.142045,-23.755949],[133.141717,-23.756028],[133.141767,-23.756488],[133.142055,-23.756895],[133.142154,-23.757171],[133.141568,-23.757356],[133.141245,-23.757308],[133.140834,-23.757502],[133.140361,-23.757648],[133.139998,-23.757334],[133.139834,-23.756904],[133.13951,-23.756519],[133.139161,-23.756308],[133.138745,-23.756142],[133.138146,-23.756122],[133.137817,-23.756167],[133.137367,-23.755678],[133.137068,-23.755454],[133.136789,-23.755119],[133.136461,-23.755045],[133.135784,-23.754865],[133.135175,-23.754817],[133.134865,-23.754675],[133.134608,-23.754514],[133.134298,-23.75433],[133.133809,-23.754114],[133.133274,-23.753963],[133.132535,-23.753563],[133.131977,-23.753466],[133.131507,-23.753325],[133.130784,-23.753165],[133.130195,-23.753056],[133.129853,-23.753018],[133.129487,-23.75298],[133.129026,-23.752796],[133.128684,-23.752903],[133.128435,-23.75291],[133.128292,-23.752573],[133.127985,-23.752563],[133.12768,-23.752716],[133.127372,-23.752661],[133.126823,-23.752664],[133.126283,-23.752771],[133.125778,-23.753241],[133.125289,-23.753422],[133.124554,-23.753227],[133.124092,-23.753208],[133.12356,-23.753292],[133.123159,-23.753348],[133.122404,-23.753446],[133.121611,-23.75357],[133.120757,-23.753382],[133.119973,-23.753776],[133.119462,-23.753898],[133.118971,-23.753907],[133.118514,-23.753974],[133.117851,-23.753887],[133.117296,-23.753975],[133.116852,-23.753752],[133.116245,-23.753579],[133.115186,-23.753227],[133.114347,-23.752994],[133.113417,-23.752571],[133.112993,-23.752524],[133.112055,-23.752544],[133.111402,-23.752245],[133.111068,-23.752108],[133.110315,-23.752143],[133.109524,-23.752395],[133.109045,-23.752527],[133.108565,-23.752579],[133.107697,-23.752823],[133.106913,-23.753146],[133.106322,-23.753218],[133.106104,-23.753327],[133.105762,-23.753629],[133.105436,-23.753832],[133.105475,-23.754173],[133.105207,-23.754503],[133.105119,-23.755033],[133.104719,-23.755517],[133.104577,-23.755855],[133.104441,-23.756218],[133.104226,-23.756743],[133.103933,-23.757016],[133.103385,-23.757374],[133.103158,-23.757545],[133.102611,-23.757716],[133.102227,-23.757823],[133.101851,-23.757894],[133.101289,-23.75806],[133.100856,-23.75844],[133.100284,-23.758729],[133.099849,-23.759056],[133.099334,-23.759466],[133.098751,-23.759888],[133.098055,-23.760593],[133.097899,-23.761011],[133.097575,-23.761608],[133.097704,-23.76191],[133.097187,-23.762692],[133.0969,-23.763681],[133.096855,-23.764109],[133.096821,-23.764685],[133.096778,-23.765185],[133.096683,-23.765501],[133.096506,-23.765847],[133.096715,-23.766366],[133.096666,-23.766697],[133.09699,-23.767182],[133.097292,-23.767496],[133.097396,-23.768094],[133.097489,-23.768533],[133.097507,-23.7688],[133.097474,-23.76903],[133.097313,-23.769308],[133.097296,-23.769636],[133.097295,-23.769996],[133.097315,-23.770353],[133.097363,-23.770555],[133.097417,-23.770968],[133.097281,-23.771307],[133.097205,-23.771734],[133.097214,-23.77215],[133.097253,-23.772534],[133.097385,-23.772891],[133.097479,-23.773007],[133.097605,-23.773152],[133.097783,-23.773373],[133.097838,-23.773494],[133.097895,-23.773577],[133.097914,-23.773714],[133.09812,-23.773754],[133.098075,-23.773769],[133.098251,-23.773906],[133.09827,-23.773994],[133.098303,-23.7742],[133.098519,-23.774603],[133.098726,-23.774954],[133.098871,-23.775247],[133.098982,-23.775447],[133.099039,-23.775779],[133.098988,-23.77616],[133.098939,-23.776492],[133.098894,-23.776712],[133.098688,-23.777026],[133.098686,-23.777109]],[[133.098686,-23.777109],[133.098488,-23.777557],[133.098007,-23.77785],[133.097566,-23.778204],[133.097372,-23.778743],[133.097778,-23.779052],[133.097969,-23.779283],[133.098317,-23.779769],[133.098556,-23.780103],[133.098496,-23.780341],[133.098413,-23.780624],[133.098189,-23.780794],[133.097929,-23.780889],[133.097533,-23.78111],[133.096901,-23.781172],[133.096317,-23.781095],[133.095432,-23.780974],[133.094764,-23.780895],[133.094061,-23.780896],[133.093019,-23.780989],[133.092013,-23.780642],[133.091512,-23.780433],[133.091252,-23.780429],[133.090946,-23.780611],[133.090204,-23.780586],[133.089604,-23.780546],[133.088929,-23.780678],[133.087946,-23.780832],[133.086857,-23.781115],[133.086291,-23.781173],[133.086281,-23.781479],[133.08454,-23.78106],[133.083777,-23.780992],[133.0832,-23.780803],[133.08188,-23.780686],[133.080758,-23.780747],[133.079711,-23.780733],[133.078679,-23.780532],[133.077674,-23.780242],[133.077107,-23.780133],[133.076699,-23.779946],[133.076031,-23.779889],[133.07547,-23.779816],[133.074904,-23.779811],[133.07453,-23.779791],[133.073949,-23.779814],[133.073699,-23.779752],[133.073305,-23.779876],[133.073053,-23.779953]],[[133.073215,-23.772312],[133.073525,-23.771245],[133.073598,-23.771033]],[[133.073598,-23.771033],[133.073686,-23.770788],[133.073871,-23.770657],[133.074187,-23.770642],[133.074577,-23.770404],[133.07487,-23.77028],[133.075052,-23.770164],[133.075356,-23.770122],[133.075679,-23.770028],[133.075951,-23.770055],[133.076219,-23.76984],[133.076524,-23.769722],[133.076767,-23.76982],[133.077253,-23.770084],[133.077927,-23.76981],[133.078077,-23.769723],[133.078198,-23.769949],[133.078454,-23.769989],[133.078787,-23.77005],[133.078987,-23.770022],[133.079157,-23.770052],[133.079564,-23.770072],[133.07983,-23.769919],[133.080162,-23.770092],[133.080454,-23.77016],[133.080664,-23.770233],[133.080843,-23.770259],[133.081194,-23.770312],[133.081511,-23.770282],[133.081673,-23.770207],[133.081822,-23.770011],[133.082198,-23.770016],[133.082441,-23.770089],[133.08267,-23.770421],[133.082811,-23.770359],[133.083072,-23.770114],[133.083554,-23.7701],[133.083699,-23.770135],[133.083923,-23.770319],[133.084108,-23.770114],[133.084568,-23.770209],[133.084796,-23.770124],[133.08488,-23.769967],[133.085206,-23.769807],[133.085575,-23.769698],[133.085831,-23.769661],[133.085991,-23.769572],[133.086383,-23.769215],[133.086796,-23.769114],[133.087124,-23.768916],[133.08748,-23.769075],[133.087714,-23.76918],[133.08802,-23.768987],[133.088424,-23.769164],[133.088712,-23.768973],[133.089191,-23.768944],[133.089507,-23.768901],[133.089775,-23.768894],[133.090361,-23.768899],[133.090738,-23.768653],[133.091055,-23.768252],[133.0912,-23.768001],[133.091433,-23.767667],[133.091554,-23.767516],[133.091492,-23.767195],[133.091122,-23.76707],[133.091229,-23.766989],[133.091727,-23.767103],[133.092155,-23.767188],[133.092028,-23.767374],[133.092066,-23.767474],[133.092431,-23.767312],[133.092629,-23.767253],[133.093088,-23.7673],[133.093467,-23.767211],[133.093959,-23.767294],[133.094431,-23.767395],[133.094869,-23.767411],[133.095134,-23.767459],[133.095447,-23.767364],[133.095659,-23.767413],[133.09597,-23.767523],[133.096268,-23.767431],[133.096823,-23.767512],[133.097115,-23.767496],[133.097142,-23.7674]],[[133.072686,-23.779845],[133.07194,-23.779287],[133.071406,-23.779079],[133.071338,-23.77911],[133.071001,-23.779184],[133.070818,-23.778759],[133.070301,-23.77885],[133.06991,-23.778805],[133.069132,-23.778928],[133.068426,-23.778925],[133.067982,-23.779019],[133.067717,-23.778966],[133.067356,-23.778883],[133.067181,-23.779038],[133.066837,-23.7791],[133.066553,-23.779043],[133.065905,-23.778797],[133.065816,-23.779002],[133.065867,-23.779162],[133.065896,-23.779305],[133.065601,-23.779434],[133.065171,-23.779483],[133.064938,-23.779437],[133.064364,-23.779358],[133.064177,-23.779459],[133.063922,-23.779518],[133.06366,-23.779612],[133.06317,-23.779742],[133.062685,-23.780013],[133.062476,-23.780194],[133.061913,-23.780097],[133.06128,-23.780044],[133.060677,-23.780021],[133.06015,-23.780152],[133.059828,-23.780429],[133.05857,-23.780123],[133.058222,-23.779842],[133.057813,-23.779615],[133.057326,-23.779504],[133.056442,-23.77919],[133.055701,-23.779056],[133.054967,-23.778728],[133.054277,-23.778917],[133.053703,-23.779155],[133.053791,-23.779598],[133.053827,-23.780344],[133.053101,-23.780328],[133.052458,-23.780067],[133.052211,-23.779946],[133.051224,-23.779981],[133.050346,-23.779918],[133.049769,-23.779803],[133.049278,-23.779653],[133.048857,-23.779712],[133.048275,-23.779631],[133.047935,-23.779412],[133.047447,-23.779414],[133.047179,-23.779398],[133.046891,-23.779425],[133.046561,-23.779372],[133.045659,-23.779242],[133.045528,-23.779456],[133.04548,-23.77967],[133.044894,-23.780021],[133.044235,-23.780096],[133.043315,-23.780088],[133.042724,-23.78003],[133.041919,-23.779973],[133.041253,-23.779821],[133.040449,-23.779677],[133.040101,-23.779592],[133.039753,-23.779598],[133.039367,-23.779613],[133.039102,-23.779626],[133.038612,-23.779595],[133.038225,-23.779495],[133.037998,-23.779476],[133.037787,-23.779512],[133.037032,-23.779469],[133.036712,-23.779416],[133.036442,-23.779492],[133.036074,-23.779368],[133.035526,-23.77928],[133.035287,-23.779303],[133.035154,-23.779412],[133.034892,-23.779619],[133.034552,-23.779867],[133.034166,-23.779843],[133.03407,-23.779594],[133.033693,-23.779254],[133.033459,-23.778961],[133.033195,-23.778797],[133.032547,-23.778706],[133.032337,-23.778601],[133.031827,-23.778672],[133.031304,-23.77871],[133.030781,-23.77865],[133.030594,-23.778422],[133.030303,-23.778388],[133.029818,-23.778154],[133.029748,-23.778218],[133.029536,-23.778403],[133.02923,-23.778402],[133.028861,-23.778404],[133.028691,-23.77848],[133.0285,-23.778621],[133.028264,-23.778601],[133.027678,-23.778459],[133.027133,-23.778325],[133.026499,-23.778238],[133.025915,-23.778083],[133.025694,-23.778005],[133.025275,-23.777922],[133.024964,-23.77784],[133.024553,-23.777767],[133.024137,-23.77776],[133.024117,-23.777755]],[[133.024117,-23.777755],[133.023962,-23.777717],[133.023647,-23.777622],[133.022825,-23.777302],[133.02238,-23.777214],[133.022148,-23.777102],[133.021938,-23.776997],[133.02183,-23.776915],[133.021757,-23.776889],[133.021578,-23.776781],[133.021348,-23.776618],[133.020794,-23.776647],[133.020434,-23.776684],[133.020082,-23.776612],[133.019779,-23.776556],[133.019561,-23.776557],[133.019494,-23.776639],[133.01937,-23.776849],[133.019039,-23.777123],[133.018797,-23.777284],[133.018342,-23.777599],[133.017575,-23.777565],[133.016951,-23.777558],[133.01633,-23.777535],[133.015545,-23.777248],[133.014805,-23.777216],[133.014325,-23.777161],[133.013999,-23.77721],[133.012916,-23.776416],[133.012226,-23.776254],[133.011614,-23.77624],[133.01089,-23.775937],[133.010389,-23.775794],[133.009716,-23.775432],[133.009251,-23.775294],[133.008328,-23.775033],[133.007854,-23.77489],[133.007612,-23.774742],[133.00742,-23.774637],[133.00661,-23.774046],[133.00638,-23.77367],[133.00626,-23.773163],[133.006085,-23.772907],[133.005943,-23.772614],[133.005379,-23.772338],[133.005169,-23.772079],[133.005041,-23.771957]],[[133.005041,-23.771957],[133.004469,-23.771591],[133.003748,-23.770845],[133.003614,-23.770437],[133.002968,-23.770152],[133.002681,-23.769908],[133.00253,-23.769601],[133.002793,-23.769526],[133.002816,-23.769185],[133.002783,-23.768413],[133.002602,-23.767987],[133.002257,-23.767738],[133.0015,-23.767543],[133.001053,-23.767346],[133.000711,-23.76672],[133.000429,-23.766409],[133.000141,-23.766199]],[[133.000141,-23.766199],[132.999962,-23.765859],[133.000392,-23.765397],[133.000326,-23.765079],[133.000628,-23.764616],[133.00091,-23.76431],[133.001106,-23.763839],[133.001243,-23.763425],[133.00122,-23.763085],[133.000456,-23.762642],[132.999737,-23.762071],[132.999198,-23.761684],[132.998745,-23.761611],[132.998308,-23.761701],[132.997874,-23.762091],[132.997443,-23.761922],[132.99713,-23.761622],[132.996724,-23.761304],[132.996125,-23.761149],[132.995687,-23.761125],[132.994795,-23.760832],[132.99464,-23.760502],[132.994611,-23.760133],[132.994299,-23.759907],[132.99385,-23.759847],[132.993543,-23.759508],[132.992979,-23.759297],[132.992486,-23.759135],[132.991958,-23.759014],[132.990791,-23.759106],[132.98993,-23.75877],[132.989502,-23.758426],[132.989101,-23.757926],[132.988198,-23.757467],[132.987627,-23.756966],[132.987421,-23.756802],[132.986947,-23.756573],[132.986405,-23.756239],[132.985567,-23.755777],[132.985144,-23.755654],[132.984714,-23.755339],[132.983919,-23.755046],[132.982991,-23.754742],[132.982114,-23.754903],[132.981602,-23.754896],[132.980798,-23.754721],[132.980645,-23.754505],[132.979736,-23.754236],[132.978848,-23.754514],[132.978629,-23.754581]],[[132.978629,-23.754581],[132.979136,-23.756248],[132.979758,-23.757536],[132.980175,-23.758341],[132.980081,-23.758809]],[[132.980081,-23.758809],[132.979677,-23.759077],[132.979574,-23.759194]],[[132.979574,-23.759194],[132.979424,-23.759414]],[[132.979424,-23.759414],[132.979152,-23.759359]],[[132.979152,-23.759359],[132.978417,-23.759244],[132.977923,-23.758753],[132.978094,-23.757772],[132.977587,-23.757096],[132.978053,-23.756934],[132.97762,-23.75662],[132.976893,-23.755894],[132.976435,-23.755743],[132.976119,-23.755649],[132.975551,-23.755518],[132.975293,-23.75477],[132.975215,-23.754039],[132.975348,-23.753524],[132.974994,-23.752714],[132.974214,-23.752476],[132.973218,-23.751638],[132.972905,-23.751363]],[[132.972905,-23.751363],[132.972669,-23.750345],[132.972555,-23.749898],[132.972199,-23.749508],[132.9718,-23.749334],[132.971528,-23.749004],[132.971268,-23.748508],[132.971547,-23.748421],[132.971763,-23.748197],[132.97188,-23.748032],[132.971959,-23.747808],[132.972156,-23.747685],[132.972394,-23.747541],[132.972394,-23.747359],[132.972437,-23.747098],[132.972143,-23.746745],[132.972493,-23.746558],[132.972826,-23.746361],[132.973176,-23.746004],[132.973728,-23.746017],[132.974257,-23.745671],[132.974086,-23.745321],[132.973561,-23.744912],[132.973534,-23.744744],[132.974216,-23.744537],[132.974325,-23.74421],[132.974018,-23.74359],[132.973581,-23.743058],[132.972886,-23.742655],[132.972287,-23.74226],[132.971509,-23.741888],[132.970754,-23.741479],[132.97011,-23.741165],[132.969227,-23.740812],[132.968574,-23.740621],[132.968037,-23.740318],[132.967704,-23.739938],[132.967266,-23.73967],[132.966948,-23.739501],[132.966523,-23.739258],[132.966018,-23.739092],[132.965619,-23.739022],[132.965158,-23.738784],[132.964718,-23.738639],[132.963816,-23.738258],[132.963513,-23.738299],[132.963028,-23.738192],[132.96245,-23.737932],[132.961902,-23.737671],[132.960843,-23.737281],[132.960227,-23.736964],[132.959778,-23.736737],[132.959104,-23.736417],[132.958502,-23.736078],[132.95809,-23.735893],[132.957755,-23.735819],[132.957441,-23.735662],[132.957174,-23.735539],[132.956546,-23.735322],[132.95576,-23.734819],[132.955282,-23.734629],[132.954765,-23.734476],[132.954226,-23.733992],[132.953581,-23.733626],[132.953053,-23.733266],[132.95243,-23.732861],[132.951643,-23.732624],[132.950906,-23.73235],[132.949739,-23.731949],[132.948283,-23.731374],[132.947599,-23.731254],[132.947353,-23.731235],[132.946863,-23.730929],[132.946247,-23.730645],[132.945672,-23.730503],[132.944786,-23.730153],[132.944274,-23.729878],[132.943421,-23.72961],[132.942986,-23.729312],[132.942715,-23.729033],[132.942238,-23.728736],[132.941802,-23.728398],[132.941343,-23.727947],[132.940768,-23.72773],[132.940374,-23.727632],[132.939848,-23.727536],[132.939839,-23.727549]],[[132.939839,-23.727549],[132.939621,-23.727733],[132.939295,-23.727856],[132.938896,-23.727918],[132.938632,-23.727974],[132.938439,-23.728167],[132.938294,-23.728411],[132.938163,-23.728701],[132.938035,-23.72899],[132.937827,-23.729206],[132.937557,-23.729389],[132.937207,-23.729529],[132.936944,-23.729671],[132.936814,-23.729948],[132.936734,-23.730226],[132.936968,-23.730541],[132.937154,-23.730777],[132.937239,-23.730975],[132.937287,-23.731251],[132.937268,-23.731441],[132.937134,-23.731674],[132.937063,-23.731882],[132.937024,-23.732055],[132.936887,-23.732369],[132.936792,-23.732517],[132.936734,-23.732765],[132.936706,-23.732912],[132.936579,-23.73314],[132.936382,-23.733197],[132.936073,-23.733309],[132.935931,-23.733475],[132.935738,-23.73354],[132.935711,-23.733773],[132.935449,-23.733835],[132.935607,-23.734059],[132.935524,-23.734269],[132.93533,-23.734604],[132.935157,-23.734946],[132.93522,-23.73536],[132.935667,-23.735495],[132.935948,-23.735586],[132.936212,-23.735609],[132.936308,-23.735327],[132.936635,-23.735699],[132.936786,-23.735893],[132.936961,-23.736365],[132.937234,-23.736663],[132.937616,-23.736841],[132.93778,-23.736945],[132.938393,-23.737263],[132.938868,-23.737344],[132.93933,-23.737642],[132.939657,-23.737683],[132.940149,-23.738215],[132.939542,-23.738328],[132.939028,-23.738519],[132.938674,-23.738761],[132.938415,-23.738935],[132.937715,-23.73913],[132.937361,-23.739345],[132.936529,-23.73905],[132.935753,-23.738738],[132.935565,-23.738246],[132.934996,-23.738304],[132.934616,-23.738451],[132.93391,-23.738359],[132.93365,-23.737901],[132.93336,-23.737492],[132.932777,-23.736748],[132.932777,-23.736224],[132.932046,-23.736218],[132.931613,-23.735702],[132.931091,-23.735245],[132.930667,-23.735492],[132.929961,-23.735348],[132.929667,-23.735016],[132.929394,-23.734723],[132.928926,-23.734679],[132.928425,-23.734933],[132.927785,-23.735091],[132.92714,-23.734658],[132.926833,-23.734568],[132.926314,-23.734777],[132.926013,-23.734895],[132.925202,-23.734775],[132.924757,-23.734518],[132.923906,-23.734711],[132.922929,-23.734716],[132.922665,-23.734425],[132.921815,-23.734327],[132.921487,-23.734315],[132.921294,-23.734179],[132.921035,-23.733815],[132.920964,-23.733431],[132.920709,-23.733191],[132.920182,-23.732817],[132.919711,-23.732374],[132.919505,-23.732182],[132.919375,-23.731999],[132.91914,-23.731777],[132.919057,-23.731466],[132.918733,-23.730804],[132.918246,-23.73062],[132.91754,-23.730408],[132.91717,-23.730812],[132.916898,-23.730742],[132.916591,-23.730475],[132.916256,-23.730085],[132.915688,-23.729637],[132.915143,-23.729557],[132.914669,-23.729008],[132.913951,-23.72857],[132.913655,-23.7285],[132.913154,-23.728314],[132.912736,-23.727939],[132.912112,-23.727662],[132.911634,-23.727591],[132.910986,-23.727823],[132.910614,-23.728068],[132.910272,-23.727705]],[[132.910197,-23.727175],[132.910021,-23.72705],[132.909782,-23.726977],[132.909401,-23.727041],[132.909002,-23.726726],[132.9094,-23.726413],[132.908867,-23.726215],[132.90833,-23.725988],[132.90777,-23.725895],[132.906836,-23.72582],[132.90624,-23.725762],[132.905998,-23.725939],[132.905532,-23.726159],[132.905296,-23.726615],[132.904734,-23.726825],[132.904304,-23.727208],[132.903988,-23.727524],[132.903606,-23.727182],[132.902692,-23.726937],[132.901563,-23.726966],[132.900943,-23.726714],[132.900204,-23.726676],[132.899443,-23.726157],[132.899287,-23.725346],[132.899571,-23.725062],[132.899441,-23.724642],[132.898397,-23.724226],[132.897921,-23.723851],[132.897277,-23.723634],[132.896255,-23.723338],[132.894914,-23.723132],[132.894503,-23.723075],[132.894207,-23.722659],[132.894117,-23.72249]],[[132.894117,-23.72249],[132.894186,-23.72223],[132.894173,-23.721739],[132.894328,-23.721287],[132.894698,-23.72098],[132.894962,-23.720734],[132.895003,-23.720522],[132.895009,-23.720302],[132.894995,-23.720025],[132.894965,-23.719911],[132.894999,-23.719801],[132.895055,-23.71962],[132.895466,-23.719158],[132.895667,-23.718647],[132.89581,-23.718255],[132.895909,-23.71805],[132.896278,-23.717528],[132.896524,-23.717144],[132.896884,-23.716629],[132.897083,-23.716369],[132.89731,-23.71615],[132.897523,-23.715876],[132.89755,-23.715585],[132.897616,-23.715331],[132.897784,-23.714778],[132.897746,-23.714358],[132.897846,-23.713942],[132.897992,-23.713484],[132.898191,-23.713057],[132.898208,-23.712697],[132.898102,-23.712344],[132.898098,-23.711892],[132.897956,-23.711481],[132.897949,-23.711195],[132.898168,-23.710429],[132.897787,-23.710082],[132.897335,-23.709885],[132.897213,-23.709415],[132.897013,-23.70904],[132.896217,-23.708608],[132.895703,-23.708452],[132.895175,-23.70818],[132.895005,-23.708116],[132.894743,-23.707868],[132.894236,-23.707644],[132.893904,-23.707721],[132.893529,-23.707823],[132.8932,-23.70766],[132.892995,-23.707522],[132.89247,-23.707395],[132.891883,-23.707159],[132.891608,-23.706878],[132.891013,-23.706632],[132.890587,-23.706421],[132.890281,-23.706355],[132.889855,-23.706474],[132.889383,-23.706326],[132.888998,-23.706379],[132.888432,-23.705934],[132.888126,-23.705574],[132.887812,-23.705283],[132.887446,-23.705065],[132.887022,-23.7051],[132.886421,-23.704931],[132.885888,-23.705004],[132.885332,-23.704441],[132.884951,-23.704176],[132.884177,-23.704469],[132.883584,-23.704119],[132.883034,-23.703603],[132.882351,-23.703788],[132.881568,-23.703737],[132.881093,-23.703556],[132.880507,-23.703843],[132.880004,-23.703826],[132.879315,-23.703589],[132.879043,-23.703369],[132.878793,-23.703303],[132.878451,-23.703216],[132.878213,-23.702979],[132.877898,-23.702986],[132.877032,-23.702824],[132.876683,-23.702764],[132.876182,-23.70283],[132.875773,-23.702939],[132.875323,-23.702611],[132.874972,-23.702617],[132.874169,-23.702569],[132.873994,-23.702414],[132.873564,-23.702166],[132.872897,-23.702243],[132.872568,-23.702332],[132.872153,-23.70207],[132.871737,-23.701977],[132.871461,-23.701585],[132.871291,-23.701192],[132.870971,-23.700914],[132.870766,-23.70037],[132.87059,-23.699973],[132.870478,-23.699799],[132.870485,-23.699354],[132.870426,-23.698886],[132.869984,-23.698772],[132.869602,-23.698602],[132.868639,-23.698361],[132.86789,-23.698124],[132.867438,-23.697874],[132.86707,-23.697402],[132.866713,-23.697384],[132.866035,-23.697467],[132.865468,-23.697657],[132.864916,-23.697419],[132.864768,-23.697045],[132.864575,-23.69697],[132.864233,-23.697135],[132.863828,-23.697206],[132.863427,-23.697066],[132.862864,-23.696832],[132.862233,-23.696604],[132.86179,-23.6966],[132.861202,-23.696443],[132.86103,-23.696366],[132.860285,-23.69619],[132.859622,-23.696242],[132.85898,-23.696311],[132.858253,-23.695945],[132.857762,-23.695629],[132.857103,-23.695627],[132.8562,-23.695428],[132.855763,-23.695269],[132.855207,-23.695118],[132.854777,-23.695084],[132.854224,-23.694944],[132.85377,-23.69494],[132.853448,-23.694861],[132.853089,-23.694785],[132.852388,-23.694723],[132.851857,-23.694729],[132.851538,-23.694754],[132.851049,-23.69468],[132.850613,-23.694648],[132.850239,-23.694753],[132.849945,-23.694746],[132.849727,-23.694638],[132.849179,-23.694407],[132.848504,-23.694388],[132.847936,-23.694326],[132.847427,-23.6943],[132.846857,-23.694252],[132.846319,-23.694002],[132.845622,-23.69392],[132.845311,-23.69389],[132.844627,-23.693626],[132.843837,-23.693369],[132.84346,-23.693208],[132.842882,-23.693149],[132.842394,-23.692883],[132.841865,-23.692816],[132.84139,-23.692735],[132.840885,-23.692634],[132.840182,-23.692395],[132.839657,-23.692216],[132.838856,-23.691936],[132.838153,-23.691801],[132.837054,-23.691693],[132.835969,-23.691431],[132.835536,-23.691438],[132.83478,-23.691276],[132.834356,-23.690969],[132.833728,-23.690927],[132.833266,-23.690787],[132.832661,-23.690894],[132.832149,-23.690819],[132.831726,-23.690681],[132.831401,-23.690476],[132.830551,-23.690153],[132.829698,-23.689878],[132.829142,-23.689718],[132.828665,-23.689571],[132.82821,-23.689379],[132.827548,-23.689244],[132.827139,-23.689068],[132.826525,-23.688779],[132.826159,-23.688582],[132.826013,-23.688401],[132.825848,-23.687982],[132.825517,-23.687654],[132.825288,-23.687201],[132.825573,-23.686649],[132.825737,-23.686414],[132.825908,-23.686084],[132.825637,-23.686035],[132.82539,-23.68606]],[[132.82539,-23.68606],[132.825401,-23.685955],[132.825308,-23.685824],[132.825202,-23.685741],[132.825418,-23.685702],[132.825604,-23.685694],[132.825282,-23.68556],[132.82499,-23.68547],[132.824756,-23.685389],[132.82443,-23.685377],[132.824279,-23.68523],[132.824149,-23.685064],[132.823573,-23.684869],[132.823371,-23.684852],[132.823071,-23.684704],[132.822807,-23.684715],[132.822439,-23.684662],[132.8222,-23.684651],[132.821831,-23.684438],[132.821659,-23.684265],[132.821551,-23.684115],[132.821295,-23.684003],[132.821241,-23.683798],[132.821745,-23.683736],[132.821675,-23.683486],[132.821606,-23.683328],[132.821431,-23.683222],[132.821337,-23.68309],[132.821225,-23.682922],[132.821128,-23.68279],[132.821206,-23.682765],[132.821587,-23.682751],[132.821389,-23.682596],[132.821224,-23.682408],[132.821211,-23.682318],[132.821343,-23.682323],[132.821314,-23.682202],[132.821506,-23.682207],[132.821539,-23.682002],[132.821694,-23.681819],[132.821636,-23.681644],[132.821527,-23.681439],[132.821812,-23.681421],[132.822111,-23.681333],[132.821963,-23.681091],[132.821747,-23.680871],[132.821897,-23.680843],[132.822247,-23.680733],[132.822449,-23.680659],[132.822317,-23.680429],[132.822064,-23.680115],[132.821919,-23.679943],[132.821795,-23.679676],[132.821611,-23.679418],[132.821516,-23.679146],[132.822086,-23.679204],[132.822448,-23.679162],[132.822348,-23.678928],[132.822312,-23.678877]],[[132.822312,-23.678877],[132.822033,-23.678792],[132.821558,-23.678556],[132.820899,-23.678359],[132.820393,-23.678217],[132.820083,-23.678012],[132.819736,-23.677806],[132.819456,-23.677678],[132.819263,-23.677453],[132.819042,-23.677191],[132.818781,-23.677039],[132.818438,-23.67685],[132.818064,-23.676647],[132.817629,-23.67633],[132.817295,-23.676185],[132.817024,-23.676117],[132.816687,-23.676044],[132.816452,-23.676027],[132.816195,-23.675862],[132.815791,-23.675648],[132.815562,-23.67554],[132.815236,-23.675215],[132.81497,-23.674972],[132.814528,-23.674627],[132.814243,-23.674617],[132.813678,-23.674679],[132.813415,-23.674619],[132.812992,-23.67433],[132.812671,-23.673706],[132.812347,-23.673661],[132.811936,-23.673418],[132.811375,-23.673129],[132.811184,-23.672908],[132.810675,-23.672646],[132.810192,-23.672525],[132.809708,-23.672376],[132.809455,-23.672369],[132.808777,-23.672166],[132.808294,-23.671783],[132.807841,-23.671524],[132.807381,-23.671529],[132.80663,-23.671113],[132.805737,-23.670738],[132.805236,-23.670423],[132.804671,-23.670166],[132.804225,-23.669925],[132.803406,-23.669473],[132.802516,-23.669016],[132.801851,-23.668644],[132.80111,-23.668171],[132.800337,-23.667773],[132.799959,-23.667348],[132.799545,-23.666709],[132.799176,-23.66642],[132.798736,-23.666051],[132.798497,-23.665975],[132.798241,-23.665829],[132.798045,-23.665599],[132.797818,-23.665503],[132.797271,-23.665135],[132.797015,-23.664674],[132.796687,-23.664281],[132.796254,-23.663937],[132.795859,-23.663904],[132.795448,-23.663883],[132.795125,-23.664107],[132.794822,-23.664182],[132.794532,-23.66417],[132.794432,-23.664286],[132.794346,-23.664407],[132.794284,-23.664543],[132.793814,-23.664298],[132.793611,-23.664459],[132.793464,-23.664707],[132.793353,-23.664825],[132.793112,-23.664858],[132.793192,-23.665146],[132.793166,-23.665309],[132.792883,-23.665405],[132.792567,-23.665637],[132.792292,-23.665586],[132.792039,-23.665699],[132.791929,-23.665883],[132.791562,-23.666147],[132.791161,-23.666647],[132.790871,-23.666848],[132.790684,-23.667016],[132.790301,-23.667103],[132.790041,-23.66718],[132.789735,-23.667294],[132.789296,-23.667524],[132.789071,-23.667544],[132.78904,-23.667748],[132.78882,-23.667703],[132.788557,-23.667579],[132.788273,-23.667713],[132.787735,-23.667618],[132.787132,-23.667446],[132.786337,-23.667048],[132.786292,-23.666759],[132.785879,-23.666409],[132.785608,-23.666284],[132.785426,-23.665963],[132.785094,-23.665579],[132.784499,-23.665523],[132.783978,-23.665611],[132.783416,-23.665731],[132.78251,-23.665331],[132.782307,-23.665355],[132.781395,-23.664812],[132.780863,-23.664189],[132.780409,-23.663901],[132.779956,-23.663689],[132.779821,-23.663379],[132.779396,-23.662883],[132.779309,-23.662506],[132.778881,-23.661989],[132.779076,-23.661315],[132.778995,-23.660757],[132.77883,-23.660236],[132.778435,-23.659309],[132.777963,-23.658987],[132.777776,-23.658622],[132.7777,-23.658117],[132.777321,-23.657528],[132.776967,-23.657424],[132.776561,-23.657005],[132.776175,-23.656563],[132.775499,-23.656295],[132.774642,-23.656286],[132.773914,-23.655886],[132.7733,-23.655502],[132.772845,-23.655252],[132.77232,-23.654904],[132.772109,-23.654484],[132.772257,-23.653884],[132.772171,-23.653329],[132.771769,-23.653028],[132.771587,-23.653004],[132.771325,-23.652864],[132.770597,-23.652769],[132.769825,-23.652786],[132.769546,-23.652474],[132.769066,-23.652314],[132.768672,-23.652184],[132.768266,-23.652152],[132.76778,-23.652321],[132.767306,-23.652417],[132.766903,-23.652507],[132.766202,-23.652444],[132.76562,-23.652284],[132.765554,-23.651806],[132.765337,-23.651423],[132.76488,-23.650999],[132.764336,-23.650944],[132.763731,-23.650827],[132.763507,-23.650543],[132.76316,-23.650291],[132.762498,-23.649984],[132.762172,-23.649736],[132.761945,-23.649396],[132.761589,-23.649223],[132.761344,-23.649031],[132.760765,-23.648987],[132.760572,-23.648706],[132.760234,-23.648748],[132.759951,-23.648645],[132.759737,-23.648575],[132.759304,-23.648467],[132.758852,-23.648192],[132.758689,-23.648099],[132.758109,-23.647924],[132.757582,-23.647647],[132.757181,-23.647526],[132.756704,-23.647633],[132.756381,-23.647524],[132.75591,-23.647683],[132.755408,-23.647423],[132.755188,-23.647128],[132.754973,-23.647297],[132.754794,-23.64714],[132.754566,-23.646968],[132.754164,-23.646824],[132.753848,-23.646748],[132.753532,-23.646672],[132.753096,-23.646562],[132.75286,-23.646577],[132.752683,-23.646733],[132.752239,-23.646784],[132.75177,-23.646724],[132.751397,-23.646616],[132.750882,-23.646226],[132.74998,-23.645763],[132.749443,-23.645643],[132.748749,-23.645257],[132.748193,-23.645221],[132.748068,-23.645087],[132.747845,-23.644615],[132.747317,-23.644372],[132.7468,-23.644167],[132.746396,-23.643946],[132.746003,-23.643834],[132.745221,-23.643777],[132.744958,-23.643465],[132.744294,-23.64308],[132.743936,-23.642902],[132.743534,-23.642715],[132.743093,-23.642549],[132.742871,-23.642776],[132.742977,-23.643056],[132.742718,-23.643373],[132.742363,-23.6434],[132.742181,-23.643075],[132.741763,-23.642607],[132.741299,-23.642454],[132.740381,-23.642241],[132.739633,-23.642498],[132.73897,-23.642769],[132.738059,-23.642497],[132.737722,-23.642267],[132.737264,-23.642155],[132.736944,-23.64198],[132.736751,-23.641663],[132.736436,-23.641614],[132.735927,-23.641707],[132.735479,-23.641646],[132.735282,-23.641264],[132.735086,-23.64103],[132.734877,-23.640486],[132.734918,-23.639789],[132.734801,-23.639387],[132.734431,-23.638882],[132.734115,-23.638522],[132.733864,-23.638023],[132.733629,-23.637409],[132.733397,-23.637166],[132.73309,-23.636844],[132.732854,-23.636734],[132.732712,-23.63634],[132.732543,-23.635891],[132.732263,-23.635337],[132.732382,-23.635],[132.732366,-23.634627],[132.732279,-23.63438]],[[132.732279,-23.63438],[132.731919,-23.634183],[132.731542,-23.634162],[132.731369,-23.634271],[132.730914,-23.634108]],[[132.730914,-23.634108],[132.730667,-23.633924],[132.730288,-23.633428],[132.730018,-23.633113],[132.729648,-23.632718],[132.729449,-23.632563],[132.729092,-23.632376],[132.728759,-23.632224],[132.728257,-23.631947],[132.727807,-23.631664],[132.727326,-23.631709]],[[132.727326,-23.631709],[132.727115,-23.631563],[132.726529,-23.631791],[132.72586,-23.631976]],[[132.727326,-23.631709],[132.727115,-23.631563],[132.726529,-23.631791],[132.72586,-23.631976]],[[132.72586,-23.631976],[132.725871,-23.632533],[132.72586,-23.632626]],[[132.72586,-23.632626],[132.724854,-23.632605],[132.724567,-23.632506]],[[132.724567,-23.632506],[132.72402,-23.632515],[132.723089,-23.632279],[132.722819,-23.632148],[132.722117,-23.631768],[132.72183,-23.63129],[132.721074,-23.631173],[132.720433,-23.631039],[132.719585,-23.631336],[132.71904,-23.631369],[132.718498,-23.631506],[132.718267,-23.631472],[132.717946,-23.631439],[132.717314,-23.631384],[132.71682,-23.631778],[132.715975,-23.631911],[132.715683,-23.632079],[132.715486,-23.632613],[132.715129,-23.632891],[132.714766,-23.632984],[132.713913,-23.633267],[132.713184,-23.633979],[132.712679,-23.634487],[132.712097,-23.635169],[132.711496,-23.635643],[132.710389,-23.635948],[132.709711,-23.636239],[132.708765,-23.636293],[132.707777,-23.636583],[132.707478,-23.636656],[132.706847,-23.637133],[132.706296,-23.638211],[132.705647,-23.638895],[132.705088,-23.63904],[132.704196,-23.639301],[132.703167,-23.639618],[132.701908,-23.639874],[132.701183,-23.640157],[132.700744,-23.640552],[132.700388,-23.641081],[132.699829,-23.641912],[132.699332,-23.64274],[132.699098,-23.643718],[132.699138,-23.644561],[132.699434,-23.645305],[132.699193,-23.645713],[132.699333,-23.646377],[132.699756,-23.646481],[132.701047,-23.646612],[132.701621,-23.646876],[132.702403,-23.647214],[132.703032,-23.647504],[132.702924,-23.647871],[132.702462,-23.648109],[132.702356,-23.648464],[132.703194,-23.648967],[132.703149,-23.649457],[132.702904,-23.649856],[132.702854,-23.650297],[132.702991,-23.650794],[132.702827,-23.650897],[132.702396,-23.650899],[132.702018,-23.651072],[132.701444,-23.651335],[132.700637,-23.651389],[132.700383,-23.651057],[132.700275,-23.651214],[132.70011,-23.651898],[132.699668,-23.652212],[132.699891,-23.652873],[132.699866,-23.653496],[132.69971,-23.653829],[132.699676,-23.654224],[132.699833,-23.654692],[132.699902,-23.655392],[132.700195,-23.655671],[132.700323,-23.656064],[132.700725,-23.656509],[132.70042,-23.656557],[132.699874,-23.656858],[132.699688,-23.657244],[132.699225,-23.657627],[132.698929,-23.658233],[132.698405,-23.65854],[132.69756,-23.65858],[132.696963,-23.658677],[132.696104,-23.658498],[132.695622,-23.658434],[132.694959,-23.658786],[132.694221,-23.658959],[132.693783,-23.658774],[132.693457,-23.658269],[132.693111,-23.657759],[132.692467,-23.657059],[132.691606,-23.656494],[132.690875,-23.655734],[132.690268,-23.655287],[132.689554,-23.65498],[132.688596,-23.654824],[132.688044,-23.655433],[132.687332,-23.655589],[132.686776,-23.65585],[132.686293,-23.65585],[132.686103,-23.655751]],[[132.686103,-23.655751],[132.685077,-23.655676],[132.684669,-23.655609],[132.684067,-23.655479],[132.684082,-23.65583],[132.683879,-23.655807]],[[132.683879,-23.655807],[132.683296,-23.655457],[132.682249,-23.654905],[132.681355,-23.654917],[132.680822,-23.655283],[132.680335,-23.655869],[132.679797,-23.656184],[132.67916,-23.656599],[132.678712,-23.657301],[132.67839,-23.657934]],[[132.67839,-23.657934],[132.67806,-23.658009],[132.67644,-23.657594],[132.675071,-23.657366],[132.674332,-23.657719],[132.673894,-23.658107],[132.673211,-23.658295],[132.672668,-23.658636],[132.672134,-23.659127],[132.671485,-23.659025],[132.670831,-23.658677],[132.669791,-23.658571],[132.66929,-23.658125],[132.668695,-23.65783],[132.667801,-23.657681],[132.666607,-23.657485],[132.66591,-23.656801],[132.665699,-23.655974],[132.665119,-23.655324],[132.665182,-23.654568],[132.665424,-23.654033],[132.665649,-23.653189],[132.665259,-23.652658],[132.665299,-23.652079],[132.664957,-23.651022],[132.664527,-23.650086],[132.66414,-23.649048],[132.663664,-23.648606],[132.663348,-23.648263],[132.662701,-23.647632],[132.662215,-23.647131],[132.66178,-23.646678],[132.661449,-23.646199],[132.660336,-23.6466],[132.659971,-23.6464],[132.659284,-23.645569],[132.658626,-23.645137],[132.658148,-23.64479],[132.657901,-23.644812],[132.657207,-23.644503],[132.656456,-23.644198],[132.655597,-23.643999],[132.654326,-23.64356],[132.653616,-23.643336],[132.652843,-23.642847],[132.652278,-23.642251],[132.651863,-23.641926],[132.651342,-23.641864],[132.650493,-23.641762],[132.649903,-23.641396],[132.649557,-23.641363],[132.649281,-23.641362]],[[132.649281,-23.641362],[132.649148,-23.641274]],[[132.649148,-23.641274],[132.648314,-23.639482],[132.647452,-23.635752],[132.647782,-23.633918],[132.647964,-23.632807],[132.648259,-23.632168]],[[132.648259,-23.632168],[132.648324,-23.631277],[132.64773,-23.630964],[132.647305,-23.630693],[132.646874,-23.630574],[132.646267,-23.630187],[132.646056,-23.630034],[132.646255,-23.629331],[132.645957,-23.628539],[132.645842,-23.628103],[132.645642,-23.627478],[132.64555,-23.627045],[132.645234,-23.626413],[132.644816,-23.625882],[132.644899,-23.625558],[132.644639,-23.625023],[132.644645,-23.62443],[132.644311,-23.623915],[132.64399,-23.623517],[132.643916,-23.623145],[132.643617,-23.622443],[132.643201,-23.622006],[132.643062,-23.621241],[132.643029,-23.62055],[132.643172,-23.61965],[132.643179,-23.619118],[132.642765,-23.618734],[132.642348,-23.618526],[132.642264,-23.618035],[132.641483,-23.617602],[132.641392,-23.617123],[132.64178,-23.617029],[132.642207,-23.617378],[132.642235,-23.617232],[132.64274,-23.617042],[132.642738,-23.61661],[132.642797,-23.615749],[132.643558,-23.615947],[132.643837,-23.615787],[132.643476,-23.615189],[132.643502,-23.614962],[132.643894,-23.614959],[132.644033,-23.6147],[132.643974,-23.614396],[132.644174,-23.614131],[132.644422,-23.613884],[132.64421,-23.613695],[132.644013,-23.61341],[132.644277,-23.61314],[132.644457,-23.612888],[132.644318,-23.612252],[132.644349,-23.611872],[132.644527,-23.611193],[132.644549,-23.610822],[132.644546,-23.610255],[132.64465,-23.60997],[132.645022,-23.609905],[132.644964,-23.609731],[132.644854,-23.609581],[132.645035,-23.609409],[132.645285,-23.609226],[132.644882,-23.609092],[132.644457,-23.60861],[132.644136,-23.608341],[132.643705,-23.608098],[132.643509,-23.607802],[132.643198,-23.607673],[132.642898,-23.60757],[132.642547,-23.607407],[132.64214,-23.607306],[132.641757,-23.607259],[132.641166,-23.607165],[132.640445,-23.607142],[132.639887,-23.607119],[132.639195,-23.607239],[132.638407,-23.607044],[132.637835,-23.606836],[132.637687,-23.606573],[132.6372,-23.606398]],[[132.6372,-23.606398],[132.636972,-23.606503],[132.636745,-23.606826],[132.636421,-23.606965],[132.636136,-23.607183],[132.635878,-23.607288],[132.635653,-23.607424],[132.63555,-23.607663],[132.635111,-23.607504],[132.634684,-23.607543],[132.634357,-23.607687],[132.63408,-23.607674],[132.633796,-23.607565],[132.632962,-23.607392],[132.63259,-23.607084],[132.63229,-23.606962],[132.631764,-23.606733],[132.631421,-23.606483],[132.631135,-23.606244],[132.630953,-23.606072],[132.6307,-23.606165],[132.630544,-23.605975],[132.630526,-23.605744],[132.630204,-23.605791],[132.629806,-23.60579],[132.629674,-23.605399],[132.629416,-23.605382],[132.628962,-23.605269],[132.628866,-23.605232],[132.628524,-23.605316],[132.628442,-23.605111],[132.628491,-23.604835],[132.628462,-23.604678],[132.628451,-23.604262],[132.62876,-23.603777],[132.628266,-23.603647],[132.628006,-23.603617],[132.627418,-23.60347],[132.626767,-23.603186],[132.626349,-23.603095],[132.625604,-23.603077],[132.624893,-23.603038],[132.624749,-23.602896],[132.624924,-23.602648],[132.624458,-23.602608],[132.624279,-23.602637],[132.623847,-23.602556],[132.624121,-23.602328],[132.623752,-23.602317],[132.623704,-23.601981],[132.623371,-23.601816],[132.622912,-23.601701],[132.622163,-23.601465],[132.621454,-23.60093],[132.620916,-23.600721],[132.620319,-23.600286],[132.619896,-23.599892],[132.619363,-23.599665],[132.6186,-23.599645],[132.617537,-23.599854],[132.616989,-23.599606],[132.616525,-23.599378],[132.615863,-23.599173],[132.615542,-23.599024],[132.615012,-23.598941],[132.614537,-23.598765],[132.613826,-23.598922],[132.613055,-23.599154],[132.612708,-23.59926],[132.612145,-23.59955],[132.611655,-23.599647],[132.610903,-23.599793],[132.610457,-23.600157],[132.609922,-23.600569],[132.609577,-23.600845],[132.608924,-23.601242],[132.60857,-23.601656],[132.608,-23.601877],[132.60737,-23.602169],[132.606717,-23.602266],[132.606205,-23.602415],[132.605759,-23.602361],[132.60548,-23.602279],[132.60505,-23.602536],[132.604787,-23.603061],[132.604513,-23.6035],[132.604408,-23.603536]],[[132.604408,-23.603536],[132.604213,-23.603987],[132.603963,-23.604552],[132.60381,-23.604912],[132.603632,-23.605384],[132.603491,-23.605879],[132.603388,-23.606348],[132.603347,-23.606918],[132.60325,-23.607303],[132.603127,-23.607597],[132.60299,-23.6079],[132.602854,-23.608315],[132.602793,-23.608581],[132.602765,-23.608597]],[[132.602765,-23.608597],[132.602395,-23.608599],[132.601583,-23.608369],[132.601052,-23.608289],[132.600642,-23.608244],[132.599849,-23.607976],[132.59904,-23.607707],[132.59856,-23.607465],[132.598036,-23.607415],[132.597318,-23.607118],[132.596951,-23.606849],[132.596312,-23.606578],[132.595403,-23.606149],[132.595054,-23.605407],[132.594562,-23.605345],[132.594001,-23.605406],[132.593118,-23.605102],[132.592219,-23.604888],[132.591566,-23.605063],[132.591135,-23.605069],[132.590468,-23.604647],[132.589593,-23.604258],[132.589228,-23.604035],[132.588664,-23.603875],[132.588032,-23.603199],[132.587418,-23.60315],[132.586613,-23.603026],[132.586242,-23.602948],[132.585247,-23.602876],[132.584704,-23.602972],[132.583673,-23.602722],[132.583254,-23.602213],[132.582968,-23.602354],[132.582643,-23.602316],[132.582332,-23.60165],[132.581679,-23.601372],[132.580935,-23.601116],[132.580485,-23.601222],[132.579992,-23.601287],[132.579245,-23.601046],[132.578881,-23.60119],[132.578487,-23.60139],[132.57793,-23.601444],[132.577269,-23.601199],[132.576565,-23.601333],[132.576173,-23.601587],[132.57544,-23.601958],[132.574924,-23.602416],[132.574389,-23.602707],[132.574088,-23.602549],[132.573698,-23.602628],[132.572734,-23.602371],[132.571968,-23.602215],[132.571342,-23.601647],[132.570851,-23.601718],[132.570205,-23.601174],[132.569895,-23.601095],[132.569771,-23.601063],[132.569412,-23.600663],[132.569125,-23.600697],[132.568699,-23.600676],[132.567793,-23.600579],[132.5673,-23.600718],[132.566639,-23.600842],[132.565683,-23.600824],[132.56484,-23.60088],[132.56398,-23.600859],[132.563437,-23.600481],[132.562915,-23.600155],[132.562226,-23.599817],[132.561505,-23.599459],[132.560621,-23.599513],[132.559758,-23.599231],[132.559722,-23.598781],[132.559397,-23.598607],[132.559226,-23.598205],[132.559339,-23.597768],[132.558914,-23.597399],[132.558676,-23.596827],[132.558253,-23.59635],[132.557956,-23.596172],[132.55809,-23.595674],[132.55801,-23.595279],[132.558334,-23.594674],[132.55845,-23.594057],[132.558376,-23.593627],[132.557934,-23.593263],[132.557324,-23.592888],[132.557103,-23.592576],[132.556764,-23.592045],[132.556905,-23.591365],[132.556871,-23.590697],[132.556607,-23.59024],[132.55622,-23.58976],[132.555828,-23.589488],[132.555734,-23.589175],[132.555583,-23.588999],[132.555529,-23.588391],[132.5553,-23.587477],[132.554414,-23.587323],[132.553662,-23.58722],[132.552979,-23.586798],[132.552428,-23.586649],[132.552197,-23.586544],[132.551602,-23.586425],[132.551078,-23.586113],[132.550787,-23.585637],[132.550545,-23.585455],[132.550216,-23.585496],[132.549624,-23.58556],[132.54886,-23.585285],[132.548563,-23.585198],[132.548142,-23.584988],[132.547764,-23.585064],[132.547244,-23.584929],[132.546835,-23.584904],[132.546207,-23.584764],[132.545984,-23.584645],[132.545452,-23.583958],[132.545199,-23.583915],[132.545166,-23.583607],[132.544419,-23.58341],[132.544067,-23.583029],[132.543912,-23.582603],[132.543281,-23.582496],[132.542711,-23.582576],[132.54216,-23.582492],[132.542011,-23.582348],[132.541535,-23.582375],[132.540922,-23.582476],[132.540505,-23.582488],[132.540206,-23.582609],[132.539432,-23.582319],[132.539066,-23.581952],[132.538555,-23.581844],[132.538259,-23.58208],[132.537712,-23.582313],[132.537005,-23.582292],[132.536288,-23.582166],[132.535748,-23.582102],[132.535404,-23.581739],[132.534657,-23.581735],[132.53423,-23.581319],[132.533533,-23.581132],[132.533144,-23.581032],[132.532703,-23.581225],[132.532468,-23.581112],[132.531911,-23.581132],[132.5314,-23.580974],[132.530819,-23.580778],[132.530282,-23.580532],[132.529519,-23.580251],[132.52913,-23.57998],[132.528336,-23.579678],[132.52791,-23.579765],[132.527099,-23.579526],[132.526253,-23.579207],[132.525619,-23.578839],[132.524792,-23.578546],[132.524289,-23.578296],[132.523906,-23.578386],[132.523232,-23.578225],[132.522842,-23.577808],[132.522584,-23.577124],[132.522896,-23.576665],[132.523101,-23.576212],[132.52287,-23.576091]],[[132.52287,-23.576091],[132.52244,-23.576013],[132.521639,-23.576027],[132.520986,-23.576007],[132.520575,-23.57621],[132.519854,-23.576421],[132.519313,-23.5768],[132.519163,-23.576914]],[[132.519163,-23.576914],[132.518776,-23.577496]],[[132.518776,-23.577496],[132.519163,-23.576914]],[[132.519163,-23.576914],[132.51984,-23.576436],[132.520393,-23.576189],[132.520928,-23.576011],[132.521458,-23.576004],[132.522268,-23.575999],[132.522802,-23.57608],[132.52287,-23.576091]],[[132.52287,-23.576091],[132.523112,-23.575891],[132.523441,-23.575443],[132.523925,-23.575616],[132.524226,-23.575622],[132.524455,-23.575472],[132.52447,-23.575226],[132.524644,-23.57512],[132.52465,-23.574903],[132.524375,-23.574438],[132.524258,-23.57395],[132.524279,-23.57367],[132.52466,-23.573507],[132.525261,-23.573229],[132.525543,-23.572998],[132.525732,-23.57272],[132.525736,-23.572238],[132.525862,-23.571621],[132.525959,-23.571297],[132.526115,-23.57085],[132.526323,-23.570578],[132.526384,-23.570279],[132.526516,-23.570099],[132.526634,-23.569862],[132.526766,-23.569615],[132.526864,-23.569349],[132.526934,-23.569158],[132.52692,-23.568811],[132.527246,-23.568742],[132.527476,-23.568626],[132.52804,-23.568564],[132.528972,-23.568591],[132.529635,-23.568365],[132.530322,-23.568266],[132.531055,-23.568268],[132.531366,-23.568506],[132.531956,-23.568911],[132.532501,-23.569275],[132.533052,-23.56956],[132.533582,-23.569964],[132.534081,-23.570189],[132.534589,-23.570322],[132.534833,-23.570483]],[[132.534833,-23.570483],[132.535101,-23.570542],[132.535497,-23.570763],[132.535719,-23.570955],[132.535988,-23.571188],[132.536271,-23.571509],[132.53651,-23.571689],[132.537079,-23.571929],[132.537432,-23.572067],[132.537844,-23.572251],[132.538577,-23.572573],[132.538957,-23.572775],[132.539309,-23.572958],[132.540041,-23.573383],[132.540352,-23.573494],[132.540718,-23.573783],[132.54126,-23.574084],[132.541667,-23.574249],[132.542407,-23.574417],[132.54302,-23.574486],[132.543568,-23.57457],[132.544106,-23.574826],[132.544903,-23.575033],[132.545933,-23.575274],[132.546525,-23.575354],[132.547165,-23.575522],[132.547795,-23.575662],[132.548373,-23.575905],[132.549398,-23.576109],[132.550304,-23.576175],[132.550902,-23.576089],[132.551544,-23.576097],[132.552199,-23.576038],[132.552698,-23.576084],[132.553536,-23.576307],[132.554359,-23.576425],[132.554885,-23.576541],[132.555382,-23.576682],[132.556279,-23.576808],[132.557043,-23.576819],[132.557841,-23.576696],[132.558203,-23.576689],[132.558437,-23.576614],[132.55898,-23.576955],[132.55969,-23.577041],[132.560568,-23.576928],[132.561135,-23.577054],[132.561658,-23.577036],[132.562045,-23.577076],[132.562923,-23.577274],[132.56334,-23.577358],[132.563972,-23.577522],[132.565063,-23.577686],[132.565733,-23.577844],[132.566274,-23.577962],[132.566701,-23.578093],[132.567308,-23.578084],[132.567856,-23.578275],[132.568271,-23.578577],[132.569027,-23.57882],[132.56972,-23.578915],[132.570609,-23.578997],[132.571048,-23.579103],[132.571665,-23.579247],[132.572292,-23.579454],[132.573226,-23.579469],[132.573667,-23.579512],[132.573921,-23.579503],[132.574423,-23.579612],[132.574822,-23.579698],[132.575168,-23.579743],[132.575553,-23.579736],[132.576003,-23.579741],[132.577084,-23.579549],[132.577811,-23.579612],[132.578667,-23.579881],[132.578884,-23.580111],[132.579121,-23.580279],[132.579404,-23.580517],[132.579535,-23.580575],[132.579688,-23.580642]],[[133.538787,-23.664054],[133.53893,-23.664471],[133.539087,-23.664958],[133.539454,-23.665565],[133.539489,-23.665948],[133.539661,-23.666448],[133.539822,-23.666739],[133.53987,-23.66704],[133.540236,-23.667737],[133.540733,-23.668299],[133.541266,-23.668885],[133.54152,-23.669079],[133.542503,-23.669413],[133.542901,-23.669497],[133.543101,-23.669598],[133.54349,-23.669723],[133.543943,-23.669968],[133.544192,-23.670279],[133.54435,-23.670778],[133.544586,-23.671381],[133.544707,-23.67194],[133.544705,-23.672478],[133.544499,-23.672946],[133.544276,-23.673446],[133.544179,-23.673668],[133.543867,-23.673826],[133.543209,-23.674292],[133.542876,-23.67419],[133.542398,-23.67429],[133.542046,-23.674439],[133.541648,-23.674585],[133.542003,-23.674666],[133.541989,-23.675106],[133.542011,-23.675319],[133.542034,-23.675572],[133.541996,-23.67592],[133.541811,-23.676479],[133.541551,-23.677072],[133.541254,-23.678116],[133.540995,-23.678407],[133.540654,-23.678242],[133.540032,-23.678159],[133.53975,-23.678367],[133.539218,-23.678814],[133.538675,-23.679182],[133.537771,-23.679503],[133.537425,-23.679514],[133.536855,-23.679617],[133.536101,-23.679564],[133.535785,-23.679817],[133.534994,-23.680287],[133.534571,-23.680629],[133.53352,-23.680755],[133.532917,-23.680902],[133.532366,-23.681041],[133.531438,-23.681006],[133.530641,-23.680898],[133.530149,-23.681024],[133.529709,-23.68081],[133.528731,-23.680637],[133.527759,-23.681022],[133.527197,-23.681292],[133.526558,-23.681043],[133.526015,-23.6808],[133.525723,-23.680417],[133.524741,-23.68051],[133.523288,-23.680696],[133.522149,-23.680665],[133.521773,-23.680685],[133.521547,-23.680806],[133.521179,-23.681046],[133.520676,-23.681406]],[[133.520676,-23.681406],[133.520166,-23.681134],[133.519528,-23.681572],[133.518731,-23.681159],[133.518243,-23.681251],[133.518281,-23.680987],[133.517922,-23.681233],[133.518114,-23.680654],[133.517997,-23.680765],[133.517827,-23.680544],[133.517454,-23.680613],[133.517321,-23.680581],[133.517165,-23.680573],[133.516975,-23.680385],[133.51667,-23.680334],[133.516591,-23.6802],[133.516547,-23.679944],[133.516148,-23.679938],[133.515701,-23.679954],[133.515234,-23.679878],[133.514762,-23.679896],[133.514469,-23.679815],[133.514122,-23.680269],[133.513901,-23.680107],[133.513266,-23.680098],[133.51235,-23.680289],[133.511161,-23.680485],[133.510974,-23.680717],[133.51011,-23.680588],[133.509681,-23.680198],[133.509548,-23.679954],[133.509178,-23.679767],[133.508858,-23.679676],[133.508482,-23.679769],[133.507985,-23.679821],[133.507507,-23.680027],[133.507142,-23.680194],[133.506382,-23.680612],[133.505604,-23.68112],[133.505483,-23.681211],[133.505119,-23.681362],[133.50487,-23.681562],[133.504263,-23.681817],[133.503468,-23.681973],[133.502816,-23.682112],[133.501911,-23.682272],[133.501367,-23.682343],[133.500944,-23.682452],[133.500801,-23.682561],[133.500617,-23.682687],[133.500455,-23.6828],[133.500212,-23.682955],[133.500003,-23.683028],[133.49984,-23.683098],[133.499722,-23.683134],[133.499492,-23.683284],[133.499263,-23.683466],[133.499109,-23.683523],[133.498986,-23.683567],[133.498798,-23.683585],[133.498634,-23.683734],[133.498408,-23.68383],[133.498139,-23.684017],[133.49811,-23.684144],[133.498017,-23.684447],[133.497781,-23.684621],[133.497556,-23.684819],[133.497428,-23.684869],[133.49732,-23.684956],[133.497209,-23.685035],[133.497035,-23.685177],[133.496827,-23.685256],[133.496588,-23.685383],[133.496437,-23.685422],[133.496271,-23.685521],[133.496081,-23.685629],[133.495947,-23.685835],[133.495883,-23.686075],[133.495782,-23.686326],[133.495527,-23.686566],[133.495253,-23.686666],[133.494998,-23.686799],[133.494805,-23.686765],[133.494504,-23.686611],[133.494214,-23.686766],[133.493988,-23.686712],[133.493921,-23.68659],[133.493749,-23.686466],[133.493564,-23.686571],[133.493448,-23.686747]],[[133.493448,-23.686747],[133.493272,-23.686873],[133.493152,-23.68701],[133.493085,-23.687145],[133.493026,-23.687306],[133.492898,-23.687462],[133.492743,-23.687577],[133.492544,-23.687436],[133.492485,-23.687445],[133.492416,-23.687593],[133.492344,-23.687614],[133.49225,-23.687705],[133.492195,-23.687718],[133.492118,-23.687765],[133.492033,-23.687831],[133.492024,-23.687762],[133.491966,-23.687735],[133.491889,-23.687863],[133.491893,-23.688108],[133.491884,-23.688221]],[[133.491884,-23.688221],[133.491883,-23.688449],[133.491884,-23.688544],[133.491922,-23.688679]],[[133.491922,-23.688679],[133.491956,-23.688864],[133.492026,-23.689063],[133.49207,-23.689189],[133.492099,-23.689294],[133.492138,-23.689397],[133.492234,-23.68975],[133.492104,-23.690191]],[[133.492104,-23.690191],[133.492002,-23.690512]],[[133.492002,-23.690512],[133.492016,-23.690614],[133.492016,-23.690698],[133.491981,-23.690837],[133.491947,-23.690945],[133.491921,-23.691064],[133.49185,-23.691126],[133.491858,-23.691167],[133.491939,-23.69125],[133.491841,-23.691406],[133.492071,-23.691885],[133.492066,-23.692119],[133.492059,-23.692337],[133.492319,-23.692607],[133.492194,-23.692831],[133.492494,-23.693069],[133.492936,-23.693593]],[[133.492936,-23.693593],[133.492375,-23.694351],[133.491653,-23.694586],[133.49055,-23.69519],[133.4901,-23.695401],[133.489348,-23.695687],[133.487994,-23.695904],[133.487339,-23.69622],[133.486075,-23.696331],[133.485583,-23.696591],[133.485128,-23.697054],[133.484531,-23.69726],[133.48364,-23.697661],[133.483302,-23.698085],[133.483181,-23.698525],[133.483245,-23.699031],[133.482261,-23.699566],[133.481521,-23.699943],[133.481481,-23.700346],[133.481297,-23.701357],[133.481321,-23.7017],[133.480519,-23.702458],[133.479648,-23.703264],[133.479533,-23.703675],[133.479305,-23.704313],[133.478717,-23.704862],[133.477797,-23.705469],[133.477274,-23.70603],[133.477022,-23.706324],[133.477176,-23.706511],[133.476159,-23.706916],[133.475147,-23.707305],[133.474345,-23.707496],[133.473851,-23.7078],[133.473169,-23.707792],[133.472398,-23.708295],[133.471686,-23.70891],[133.471027,-23.709244],[133.470258,-23.710385],[133.469782,-23.71078],[133.469159,-23.711444],[133.469356,-23.712591],[133.469029,-23.712664],[133.468939,-23.713669],[133.469078,-23.714624],[133.469293,-23.715301],[133.469232,-23.715765],[133.469244,-23.716292],[133.469865,-23.716947],[133.470217,-23.717048],[133.470297,-23.717047]],[[133.538787,-23.664054],[133.538025,-23.664063],[133.537721,-23.664017]],[[133.348156,-23.718517],[133.347417,-23.7191],[133.347146,-23.7195],[133.34607,-23.721223],[133.345383,-23.722285],[133.344636,-23.722519],[133.344055,-23.722633],[133.343422,-23.723474],[133.34322,-23.724243],[133.34324,-23.7243]],[[132.939839,-23.727549],[132.939424,-23.727371],[132.938736,-23.72705],[132.938215,-23.726825],[132.93771,-23.726517],[132.937279,-23.726195],[132.936714,-23.726069],[132.936183,-23.725979],[132.935565,-23.725868],[132.935074,-23.72582],[132.934501,-23.725706],[132.934119,-23.725643],[132.933528,-23.725316],[132.933112,-23.724981],[132.932999,-23.724938]],[[133.073215,-23.772312],[133.07287,-23.772584],[133.072814,-23.773069],[133.072767,-23.773368],[133.072569,-23.773834],[133.072365,-23.774081],[133.072262,-23.774072],[133.071732,-23.773905],[133.071572,-23.773572],[133.071088,-23.77318],[133.070502,-23.773009],[133.06993,-23.77277],[133.069659,-23.772459],[133.069085,-23.772361],[133.068725,-23.772323],[133.06856,-23.772111],[133.068344,-23.771899],[133.067778,-23.771853],[133.067517,-23.771487],[133.066705,-23.771256],[133.066318,-23.771149],[133.065655,-23.770973],[133.065007,-23.770667],[133.064379,-23.770508],[133.063553,-23.770047],[133.062971,-23.770058],[133.062646,-23.769712],[133.06184,-23.769542],[133.061814,-23.768963]],[[133.061814,-23.768963],[133.061027,-23.768171],[133.060743,-23.768329],[133.060317,-23.767906],[133.059888,-23.767917],[133.059424,-23.768231],[133.058912,-23.768455],[133.058627,-23.768529],[133.058048,-23.768494],[133.057668,-23.768435],[133.0572,-23.768558],[133.056576,-23.768601],[133.056334,-23.768535],[133.055912,-23.768297],[133.055696,-23.768184],[133.055326,-23.767839],[133.054799,-23.76788],[133.054426,-23.767767],[133.054062,-23.767706],[133.053947,-23.76765],[133.053501,-23.767806],[133.053076,-23.767961],[133.052631,-23.767575],[133.052124,-23.767772],[133.051729,-23.76761],[133.051421,-23.767607]],[[133.051421,-23.767607],[133.051328,-23.767323],[133.051129,-23.767299],[133.050417,-23.767367],[133.048964,-23.766563],[133.048158,-23.76644],[133.04727,-23.766396],[133.046015,-23.76598],[133.044487,-23.765881],[133.04362,-23.765641],[133.042042,-23.766325],[133.040789,-23.766497],[133.039634,-23.766252],[133.038237,-23.766206],[133.037687,-23.766063]],[[133.037687,-23.766063],[133.036401,-23.76567],[133.035624,-23.765266],[133.034601,-23.765241],[133.034088,-23.764967],[133.032839,-23.764247],[133.03222,-23.764043],[133.031757,-23.764043],[133.031856,-23.763798],[133.031906,-23.763629],[133.031383,-23.763698],[133.031603,-23.763577],[133.031629,-23.76355]],[[133.031629,-23.76355],[133.031322,-23.763528],[133.031122,-23.763493],[133.030768,-23.763601],[133.030356,-23.763463],[133.030078,-23.763413],[133.030276,-23.763633],[133.029246,-23.763146],[133.027936,-23.761945],[133.027479,-23.761131],[133.026633,-23.760337]],[[133.026633,-23.760337],[133.024655,-23.759973],[133.023992,-23.759996],[133.023453,-23.75997],[133.02249,-23.759241],[133.022437,-23.759191]],[[133.022437,-23.759191],[133.021329,-23.758741],[133.020636,-23.758374],[133.020133,-23.758061],[133.019435,-23.757851],[133.018735,-23.757858],[133.018365,-23.757868],[133.017873,-23.757836],[133.017425,-23.758033],[133.016721,-23.757609],[133.01618,-23.757585],[133.015649,-23.757275],[133.015197,-23.757211],[133.014951,-23.757142],[133.014675,-23.756904],[133.014019,-23.756912],[133.012872,-23.756878],[133.011863,-23.756608],[133.010855,-23.756804],[133.010366,-23.757653],[133.01007,-23.758396],[133.009328,-23.758238],[133.009123,-23.758769],[133.008637,-23.759072],[133.008252,-23.759195],[133.008375,-23.759922],[133.007732,-23.760115],[133.007518,-23.760342],[133.007125,-23.760708],[133.006636,-23.760734],[133.006405,-23.761031],[133.0061,-23.761645],[133.005627,-23.76214],[133.004788,-23.762641],[133.004134,-23.762789],[133.003758,-23.76283],[133.003171,-23.762325],[133.002756,-23.762479],[133.002414,-23.762769],[133.001759,-23.762641],[133.001191,-23.76258],[133.000747,-23.762649],[133.000456,-23.762642]]]}}]}